{"type":"FeatureCollection","name":"drainage","crs":{"type":"name","properties":{"name":"urn:ogc:def:crs:OGC:1.3:CRS84"}},"features":[{"type":"Feature","properties":{"fid":2542,"osm_id":"1027462376","code":8104,"fclass":"drain","width":0,"name":null},"geometry":{"type":"MultiLineString","coordinates":[[[79.8761,6.8166],[79.8796,6.814],[79.8807,6.8128]]]}},{"type":"Feature","properties":{"fid":333,"osm_id":"591337264","code":8104,"fclass":"drain","width":0,"name":null},"geometry":{"type":"MultiLineString","coordinates":[[[79.8809,6.813],[79.8796,6.8142],[79.8758,6.817],[79.8746,6.8182],[79.8704,6.8243],[79.868,6.8304]]]}},{"type":"Feature","properties":{"fid":2837,"osm_id":"1245181592","code":8104,"fclass":"drain","width":0,"name":null},"geometry":{"type":"MultiLineString","coordinates":[[[79.8803,6.8158],[79.8787,6.8149]]]}},{"type":"Feature","properties":{"fid":2838,"osm_id":"1245181593","code":8104,"fclass":"drain","width":0,"name":null},"geometry":{"type":"MultiLineString","coordinates":[[[79.8804,6.8158],[79.8803,6.8158]]]}},{"type":"Feature","properties":{"fid":332,"osm_id":"591337263","code":8104,"fclass":"drain","width":0,"name":null},"geometry":{"type":"MultiLineString","coordinates":[[[79.8818,6.8166],[79.8804,6.8158]]]}},{"type":"Feature","properties":{"fid":339,"osm_id":"591717833","code":8104,"fclass":"drain","width":0,"name":null},"geometry":{"type":"MultiLineString","coordinates":[[[79.8812,6.8163],[79.8809,6.817],[79.8809,6.8174],[79.8822,6.8199],[79.8804,6.8233]]]}},{"type":"Feature","properties":{"fid":340,"osm_id":"591717835","code":8104,"fclass":"drain","width":0,"name":null},"geometry":{"type":"MultiLineString","coordinates":[[[79.8812,6.8163],[79.8809,6.8171],[79.8823,6.8199],[79.8805,6.8233],[79.8817,6.824]]]}},{"type":"Feature","properties":{"fid":2543,"osm_id":"1027462377","code":8104,"fclass":"drain","width":0,"name":null},"geometry":{"type":"MultiLineString","coordinates":[[[79.8758,6.8169],[79.8761,6.8166]]]}},{"type":"Feature","properties":{"fid":2585,"osm_id":"1060951723","code":8104,"fclass":"drain","width":0,"name":null},"geometry":{"type":"MultiLineString","coordinates":[[[79.8753,6.8172],[79.8758,6.8169]]]}},{"type":"Feature","properties":{"fid":2586,"osm_id":"1060951724","code":8104,"fclass":"drain","width":0,"name":null},"geometry":{"type":"MultiLineString","coordinates":[[[79.8753,6.8172],[79.8753,6.8172]]]}},{"type":"Feature","properties":{"fid":2575,"osm_id":"1060951713","code":8104,"fclass":"drain","width":0,"name":null},"geometry":{"type":"MultiLineString","coordinates":[[[79.8748,6.8177],[79.8753,6.8172]]]}},{"type":"Feature","properties":{"fid":2576,"osm_id":"1060951714","code":8104,"fclass":"drain","width":0,"name":null},"geometry":{"type":"MultiLineString","coordinates":[[[79.8747,6.8177],[79.8748,6.8177]]]}},{"type":"Feature","properties":{"fid":2587,"osm_id":"1060951725","code":8104,"fclass":"drain","width":0,"name":null},"geometry":{"type":"MultiLineString","coordinates":[[[79.8745,6.818],[79.8747,6.8177]]]}},{"type":"Feature","properties":{"fid":347,"osm_id":"591723386","code":8104,"fclass":"drain","width":0,"name":null},"geometry":{"type":"MultiLineString","coordinates":[[[79.8812,6.818],[79.8793,6.8214]]]}},{"type":"Feature","properties":{"fid":2588,"osm_id":"1060951726","code":8104,"fclass":"drain","width":0,"name":null},"geometry":{"type":"MultiLineString","coordinates":[[[79.8745,6.818],[79.8745,6.818]]]}},{"type":"Feature","properties":{"fid":2583,"osm_id":"1060951721","code":8104,"fclass":"drain","width":0,"name":null},"geometry":{"type":"MultiLineString","coordinates":[[[79.8742,6.8185],[79.8745,6.818]]]}},{"type":"Feature","properties":{"fid":2584,"osm_id":"1060951722","code":8104,"fclass":"drain","width":0,"name":null},"geometry":{"type":"MultiLineString","coordinates":[[[79.8741,6.8186],[79.8742,6.8185]]]}},{"type":"Feature","properties":{"fid":2581,"osm_id":"1060951719","code":8104,"fclass":"drain","width":0,"name":null},"geometry":{"type":"MultiLineString","coordinates":[[[79.8739,6.819],[79.8741,6.8186]]]}},{"type":"Feature","properties":{"fid":2582,"osm_id":"1060951720","code":8104,"fclass":"drain","width":0,"name":null},"geometry":{"type":"MultiLineString","coordinates":[[[79.8738,6.8191],[79.8739,6.819]]]}},{"type":"Feature","properties":{"fid":2579,"osm_id":"1060951717","code":8104,"fclass":"drain","width":0,"name":null},"geometry":{"type":"MultiLineString","coordinates":[[[79.8729,6.8205],[79.8738,6.8191]]]}},{"type":"Feature","properties":{"fid":358,"osm_id":"591734230","code":8104,"fclass":"drain","width":0,"name":null},"geometry":{"type":"MultiLineString","coordinates":[[[79.8819,6.8192],[79.8814,6.8201],[79.8804,6.8195]]]}},{"type":"Feature","properties":{"fid":357,"osm_id":"591734229","code":8104,"fclass":"drain","width":0,"name":null},"geometry":{"type":"MultiLineString","coordinates":[[[79.8819,6.8193],[79.8815,6.8201],[79.882,6.8204]]]}},{"type":"Feature","properties":{"fid":338,"osm_id":"591712357","code":8104,"fclass":"drain","width":0,"name":null},"geometry":{"type":"MultiLineString","coordinates":[[[79.8793,6.8214],[79.8787,6.8224],[79.8738,6.8195]]]}},{"type":"Feature","properties":{"fid":337,"osm_id":"591712356","code":8104,"fclass":"drain","width":0,"name":null},"geometry":{"type":"MultiLineString","coordinates":[[[79.8787,6.8224],[79.8737,6.8196]]]}},{"type":"Feature","properties":{"fid":2580,"osm_id":"1060951718","code":8104,"fclass":"drain","width":0,"name":null},"geometry":{"type":"MultiLineString","coordinates":[[[79.8728,6.8205],[79.8729,6.8205]]]}},{"type":"Feature","properties":{"fid":336,"osm_id":"591712355","code":8104,"fclass":"drain","width":0,"name":null},"geometry":{"type":"MultiLineString","coordinates":[[[79.8781,6.8237],[79.8738,6.8212],[79.873,6.8205]]]}},{"type":"Feature","properties":{"fid":2577,"osm_id":"1060951715","code":8104,"fclass":"drain","width":0,"name":null},"geometry":{"type":"MultiLineString","coordinates":[[[79.8706,6.8234],[79.8728,6.8205]]]}},{"type":"Feature","properties":{"fid":335,"osm_id":"591712354","code":8104,"fclass":"drain","width":0,"name":null},"geometry":{"type":"MultiLineString","coordinates":[[[79.8814,6.8256],[79.8738,6.8213],[79.873,6.8205]]]}},{"type":"Feature","properties":{"fid":359,"osm_id":"591734231","code":8104,"fclass":"drain","width":0,"name":null},"geometry":{"type":"MultiLineString","coordinates":[[[79.8761,6.8225],[79.8768,6.8214]]]}},{"type":"Feature","properties":{"fid":356,"osm_id":"591731616","code":8104,"fclass":"drain","width":0,"name":null},"geometry":{"type":"MultiLineString","coordinates":[[[79.8827,6.8222],[79.8817,6.824]]]}},{"type":"Feature","properties":{"fid":350,"osm_id":"591726660","code":8104,"fclass":"drain","width":0,"name":null},"geometry":{"type":"MultiLineString","coordinates":[[[79.8788,6.8224],[79.8804,6.8233]]]}},{"type":"Feature","properties":{"fid":349,"osm_id":"591726659","code":8104,"fclass":"drain","width":0,"name":null},"geometry":{"type":"MultiLineString","coordinates":[[[79.8788,6.8224],[79.8816,6.8241],[79.8814,6.8256]]]}},{"type":"Feature","properties":{"fid":355,"osm_id":"591731615","code":8104,"fclass":"drain","width":0,"name":null},"geometry":{"type":"MultiLineString","coordinates":[[[79.8788,6.8225],[79.8781,6.8237]]]}},{"type":"Feature","properties":{"fid":354,"osm_id":"591731613","code":8104,"fclass":"drain","width":0,"name":null},"geometry":{"type":"MultiLineString","coordinates":[[[79.8782,6.8237],[79.8789,6.8225]]]}},{"type":"Feature","properties":{"fid":353,"osm_id":"591731611","code":8104,"fclass":"drain","width":0,"name":null},"geometry":{"type":"MultiLineString","coordinates":[[[79.8793,6.8228],[79.8786,6.8239]]]}},{"type":"Feature","properties":{"fid":2871,"osm_id":"1287044779","code":8104,"fclass":"drain","width":0,"name":null},"geometry":{"type":"MultiLineString","coordinates":[[[79.879,6.822],[79.8787,6.8224]]]}},{"type":"Feature","properties":{"fid":2872,"osm_id":"1287044780","code":8104,"fclass":"drain","width":0,"name":null},"geometry":{"type":"MultiLineString","coordinates":[[[79.8791,6.8219],[79.879,6.822]]]}},{"type":"Feature","properties":{"fid":2873,"osm_id":"1287044781","code":8104,"fclass":"drain","width":0,"name":null},"geometry":{"type":"MultiLineString","coordinates":[[[79.8793,6.8215],[79.8791,6.8219]]]}},{"type":"Feature","properties":{"fid":2874,"osm_id":"1287044782","code":8104,"fclass":"drain","width":0,"name":null},"geometry":{"type":"MultiLineString","coordinates":[[[79.8793,6.8214],[79.8793,6.8215]]]}},{"type":"Feature","properties":{"fid":42,"osm_id":"353520676","code":8104,"fclass":"drain","width":0,"name":null},"geometry":{"type":"MultiLineString","coordinates":[[[79.912,7.0066],[79.9128,7.0069],[79.9145,7.0063],[79.9148,7.0065],[79.9153,7.0063],[79.9161,7.0065],[79.9164,7.0068],[79.917,7.0069],[79.9175,7.0069],[79.9178,7.0068],[79.9182,7.0063],[79.9211,7.0049],[79.9218,7.0052],[79.9232,7.0042],[79.9235,7.0024],[79.9232,7.001],[79.9234,7.0003],[79.9238,7.0004],[79.9243,6.9998],[79.9243,6.9992],[79.9239,6.9989],[79.924,6.9985],[79.924,6.998],[79.9256,6.9952],[79.9265,6.9944],[79.927,6.9934],[79.9274,6.9933],[79.9287,6.992],[79.9297,6.9903],[79.9313,6.9893],[79.9318,6.9885],[79.9319,6.9881],[79.9324,6.9877],[79.9328,6.9868],[79.9335,6.9866],[79.9336,6.9863],[79.9346,6.9855],[79.935,6.9848],[79.9354,6.9848],[79.9356,6.9847],[79.9357,6.9843],[79.9364,6.9839],[79.9372,6.9837],[79.9373,6.9831],[79.9375,6.983],[79.9383,6.983],[79.9386,6.9831],[79.9391,6.9828],[79.9402,6.9832],[79.9414,6.9839],[79.9416,6.9839],[79.942,6.9842],[79.9452,6.9846],[79.9456,6.9848],[79.946,6.9848],[79.9466,6.9851],[79.9469,6.9854],[79.9471,6.9854],[79.9498,6.9859],[79.9512,6.9869],[79.9515,6.9868],[79.9517,6.9873],[79.953,6.9888],[79.9536,6.9891],[79.9557,6.9896],[79.9563,6.9902],[79.9566,6.9902],[79.9581,6.993],[79.9586,6.9945]]]}},{"type":"Feature","properties":{"fid":64,"osm_id":"382635338","code":8104,"fclass":"drain","width":0,"name":null},"geometry":{"type":"MultiLineString","coordinates":[[[79.905,7.0467],[79.9026,7.0494],[79.9019,7.0507],[79.9018,7.0518],[79.9019,7.0566],[79.9026,7.0573],[79.9052,7.0614],[79.9068,7.066],[79.9113,7.0663],[79.9129,7.0668],[79.9146,7.0675],[79.9159,7.0677],[79.9173,7.0682],[79.9181,7.0686],[79.9194,7.0701],[79.9198,7.0712],[79.9199,7.0718],[79.9194,7.0728],[79.9195,7.0735],[79.9193,7.0748],[79.9196,7.0755],[79.9197,7.0764],[79.9201,7.0772],[79.9199,7.0789],[79.9203,7.0796],[79.9198,7.0818],[79.9196,7.0823],[79.9186,7.0827],[79.9181,7.0833],[79.9179,7.0844],[79.916,7.085],[79.9148,7.0862],[79.9143,7.0866],[79.9141,7.0869],[79.9142,7.0879],[79.914,7.0884],[79.9143,7.0891],[79.9139,7.0896]]]}},{"type":"Feature","properties":{"fid":67,"osm_id":"383590855","code":8104,"fclass":"drain","width":0,"name":null},"geometry":{"type":"MultiLineString","coordinates":[[[79.952,7.0568],[79.9507,7.0579],[79.9478,7.059],[79.9466,7.0599],[79.9463,7.0605]]]}},{"type":"Feature","properties":{"fid":68,"osm_id":"383937870","code":8104,"fclass":"drain","width":0,"name":null},"geometry":{"type":"MultiLineString","coordinates":[[[79.9399,7.0568],[79.9404,7.0572],[79.9409,7.058],[79.942,7.0592],[79.9432,7.0599],[79.9428,7.0604]]]}},{"type":"Feature","properties":{"fid":69,"osm_id":"383937871","code":8104,"fclass":"drain","width":0,"name":null},"geometry":{"type":"MultiLineString","coordinates":[[[79.9396,7.0572],[79.9436,7.0613],[79.9448,7.0627],[79.9449,7.0631],[79.9452,7.0631],[79.9453,7.0632]]]}},{"type":"Feature","properties":{"fid":66,"osm_id":"383041162","code":8104,"fclass":"drain","width":0,"name":null},"geometry":{"type":"MultiLineString","coordinates":[[[79.9459,7.0583],[79.9457,7.0592],[79.9458,7.0598]]]}},{"type":"Feature","properties":{"fid":224,"osm_id":"579320054","code":8104,"fclass":"drain","width":0,"name":null},"geometry":{"type":"MultiLineString","coordinates":[[[79.9478,7.0588],[79.9458,7.0598],[79.9453,7.0603]]]}},{"type":"Feature","properties":{"fid":223,"osm_id":"579320053","code":8104,"fclass":"drain","width":0,"name":null},"geometry":{"type":"MultiLineString","coordinates":[[[79.9453,7.0603],[79.9452,7.0604]]]}},{"type":"Feature","properties":{"fid":65,"osm_id":"383041161","code":8104,"fclass":"drain","width":0,"name":null},"geometry":{"type":"MultiLineString","coordinates":[[[79.9452,7.0604],[79.9449,7.0617],[79.9453,7.0618],[79.9452,7.0623],[79.9454,7.0631],[79.9453,7.0632],[79.9459,7.064],[79.946,7.0645],[79.9472,7.0659],[79.9476,7.0668],[79.9478,7.0676]]]}},{"type":"Feature","properties":{"fid":226,"osm_id":"579320058","code":8104,"fclass":"drain","width":0,"name":null},"geometry":{"type":"MultiLineString","coordinates":[[[79.9463,7.0605],[79.9463,7.0606]]]}},{"type":"Feature","properties":{"fid":225,"osm_id":"579320057","code":8104,"fclass":"drain","width":0,"name":null},"geometry":{"type":"MultiLineString","coordinates":[[[79.9463,7.0606],[79.9458,7.0617],[79.9458,7.0624],[79.946,7.0631],[79.9476,7.0645],[79.9474,7.0649],[79.9471,7.0652],[79.9473,7.0656],[79.9471,7.0658]]]}},{"type":"Feature","properties":{"fid":48,"osm_id":"376035371","code":8104,"fclass":"drain","width":0,"name":null},"geometry":{"type":"MultiLineString","coordinates":[[[79.9483,7.0696],[79.9482,7.0705],[79.9484,7.0715],[79.9486,7.0748],[79.9476,7.077],[79.9477,7.0778],[79.9468,7.0788],[79.9467,7.0792],[79.9468,7.0794],[79.9462,7.0798],[79.9459,7.0804],[79.9453,7.0799]]]}},{"type":"Feature","properties":{"fid":49,"osm_id":"376324768","code":8104,"fclass":"drain","width":0,"name":null},"geometry":{"type":"MultiLineString","coordinates":[[[79.9475,7.0751],[79.9466,7.078],[79.9449,7.0807],[79.9428,7.083],[79.941,7.0846],[79.9407,7.0858],[79.9401,7.0859]]]}},{"type":"Feature","properties":{"fid":50,"osm_id":"376359188","code":8104,"fclass":"drain","width":0,"name":null},"geometry":{"type":"MultiLineString","coordinates":[[[79.9364,7.0835],[79.9373,7.0831]]]}},{"type":"Feature","properties":{"fid":80,"osm_id":"392548687","code":8104,"fclass":"drain","width":0,"name":null},"geometry":{"type":"MultiLineString","coordinates":[[[79.944,7.0839],[79.9429,7.084],[79.9422,7.0848],[79.9416,7.084]]]}},{"type":"Feature","properties":{"fid":51,"osm_id":"376359994","code":8104,"fclass":"drain","width":0,"name":null},"geometry":{"type":"MultiLineString","coordinates":[[[79.9365,7.084],[79.9373,7.0839],[79.938,7.0843],[79.9383,7.0847],[79.9386,7.0853],[79.9393,7.0856],[79.9398,7.086],[79.94,7.0871]]]}},{"type":"Feature","properties":{"fid":212,"osm_id":"558718843","code":8104,"fclass":"drain","width":0,"name":null},"geometry":{"type":"MultiLineString","coordinates":[[[79.8866,7.087],[79.8867,7.0862],[79.8873,7.0862],[79.8877,7.0855],[79.8877,7.0851]]]}},{"type":"Feature","properties":{"fid":74,"osm_id":"385070525","code":8104,"fclass":"drain","width":0,"name":null},"geometry":{"type":"MultiLineString","coordinates":[[[79.9622,7.0857],[79.9618,7.0857],[79.9617,7.086],[79.9614,7.086],[79.9611,7.0856],[79.96,7.0859],[79.9597,7.0855],[79.9594,7.086],[79.9591,7.086],[79.9589,7.0864],[79.9587,7.0864],[79.9586,7.087]]]}},{"type":"Feature","properties":{"fid":73,"osm_id":"384798708","code":8104,"fclass":"drain","width":0,"name":null},"geometry":{"type":"MultiLineString","coordinates":[[[79.9694,7.0886],[79.9669,7.0884],[79.9664,7.088],[79.966,7.088],[79.966,7.0878],[79.9686,7.0864],[79.9696,7.0857]]]}},{"type":"Feature","properties":{"fid":75,"osm_id":"385230754","code":8104,"fclass":"drain","width":0,"name":null},"geometry":{"type":"MultiLineString","coordinates":[[[79.9586,7.0865],[79.9585,7.0863],[79.9585,7.0857]]]}},{"type":"Feature","properties":{"fid":71,"osm_id":"384798705","code":8104,"fclass":"drain","width":0,"name":null},"geometry":{"type":"MultiLineString","coordinates":[[[79.9685,7.0882],[79.9681,7.0876],[79.9677,7.0864],[79.9665,7.0863],[79.9665,7.0859],[79.966,7.0859],[79.9643,7.0865]]]}},{"type":"Feature","properties":{"fid":76,"osm_id":"385230756","code":8104,"fclass":"drain","width":0,"name":null},"geometry":{"type":"MultiLineString","coordinates":[[[79.9589,7.0863],[79.9614,7.086]]]}},{"type":"Feature","properties":{"fid":211,"osm_id":"558718842","code":8104,"fclass":"drain","width":0,"name":null},"geometry":{"type":"MultiLineString","coordinates":[[[79.8931,7.0869],[79.8922,7.087],[79.8923,7.0863]]]}},{"type":"Feature","properties":{"fid":194,"osm_id":"510123777","code":8104,"fclass":"drain","width":0,"name":null},"geometry":{"type":"MultiLineString","coordinates":[[[79.8921,7.0864],[79.8916,7.0866]]]}},{"type":"Feature","properties":{"fid":93,"osm_id":"405963190","code":8104,"fclass":"drain","width":0,"name":null},"geometry":{"type":"MultiLineString","coordinates":[[[79.8916,7.0866],[79.8916,7.0866]]]}},{"type":"Feature","properties":{"fid":94,"osm_id":"405963191","code":8104,"fclass":"drain","width":0,"name":null},"geometry":{"type":"MultiLineString","coordinates":[[[79.8915,7.0877],[79.8916,7.0866]]]}},{"type":"Feature","properties":{"fid":56,"osm_id":"376625481","code":8104,"fclass":"drain","width":0,"name":null},"geometry":{"type":"MultiLineString","coordinates":[[[79.9586,7.087],[79.9609,7.0872],[79.9612,7.0867],[79.9631,7.0868]]]}},{"type":"Feature","properties":{"fid":11,"osm_id":"112453449","code":8104,"fclass":"drain","width":0,"name":null},"geometry":{"type":"MultiLineString","coordinates":[[[79.8898,7.0947],[79.8903,7.0911],[79.891,7.0873]]]}},{"type":"Feature","properties":{"fid":72,"osm_id":"384798707","code":8104,"fclass":"drain","width":0,"name":null},"geometry":{"type":"MultiLineString","coordinates":[[[79.9681,7.0876],[79.9678,7.0878],[79.9672,7.0875],[79.9665,7.0882]]]}},{"type":"Feature","properties":{"fid":70,"osm_id":"384298312","code":8104,"fclass":"drain","width":0,"name":"Murutha Gaha Canal"},"geometry":{"type":"MultiLineString","coordinates":[[[79.9671,7.0906],[79.9667,7.0908],[79.9664,7.0904],[79.9659,7.0904],[79.9653,7.0907],[79.9638,7.0907],[79.9621,7.0901],[79.961,7.0905],[79.9605,7.0902],[79.9603,7.0906],[79.9601,7.0907],[79.959,7.0906],[79.9569,7.091],[79.9563,7.0915]]]}},{"type":"Feature","properties":{"fid":54,"osm_id":"376504837","code":8104,"fclass":"drain","width":0,"name":null},"geometry":{"type":"MultiLineString","coordinates":[[[79.9364,7.0994],[79.9359,7.0994],[79.9348,7.0986],[79.934,7.0986],[79.9341,7.0989],[79.9337,7.099],[79.933,7.0985],[79.9326,7.0986],[79.9323,7.0984]]]}},{"type":"Feature","properties":{"fid":55,"osm_id":"376506709","code":8104,"fclass":"drain","width":0,"name":null},"geometry":{"type":"MultiLineString","coordinates":[[[79.9342,7.1005],[79.934,7.1002],[79.9343,7.0994],[79.9341,7.0989]]]}},{"type":"Feature","properties":{"fid":118,"osm_id":"431123627","code":8104,"fclass":"drain","width":0,"name":null},"geometry":{"type":"MultiLineString","coordinates":[[[79.9685,7.1077],[79.9703,7.108],[79.9706,7.1078],[79.971,7.1067],[79.9718,7.1059],[79.9717,7.1053],[79.9726,7.1031],[79.9723,7.1012],[79.9716,7.1001],[79.9712,7.0998],[79.9699,7.0998],[79.9686,7.0993]]]}},{"type":"Feature","properties":{"fid":119,"osm_id":"432985793","code":8104,"fclass":"drain","width":0,"name":"Vaan Ela"},"geometry":{"type":"MultiLineString","coordinates":[[[79.8842,7.1033],[79.8848,7.1034],[79.8856,7.1032]]]}},{"type":"Feature","properties":{"fid":884,"osm_id":"815859379","code":8104,"fclass":"drain","width":0,"name":null},"geometry":{"type":"MultiLineString","coordinates":[[[79.9117,7.0069],[79.912,7.0066]]]}},{"type":"Feature","properties":{"fid":885,"osm_id":"815859380","code":8104,"fclass":"drain","width":0,"name":null},"geometry":{"type":"MultiLineString","coordinates":[[[79.9027,7.0059],[79.9035,7.0064],[79.9043,7.0065],[79.9048,7.0063],[79.9053,7.0064],[79.9062,7.0062],[79.9074,7.0067],[79.9093,7.0067],[79.91,7.0069],[79.9106,7.0067],[79.9117,7.0069]]]}},{"type":"Feature","properties":{"fid":2158,"osm_id":"968245963","code":8104,"fclass":"drain","width":0,"name":null},"geometry":{"type":"MultiLineString","coordinates":[[[79.9478,7.0676],[79.9479,7.0681]]]}},{"type":"Feature","properties":{"fid":2815,"osm_id":"1184928512","code":8104,"fclass":"drain","width":0,"name":null},"geometry":{"type":"MultiLineString","coordinates":[[[79.9221,6.9781],[79.9197,6.9793],[79.9191,6.9798],[79.9189,6.9801],[79.9189,6.9811],[79.9186,6.9819],[79.9222,6.9824],[79.9227,6.9828]]]}},{"type":"Feature","properties":{"fid":2869,"osm_id":"1276707024","code":8104,"fclass":"drain","width":0,"name":null},"geometry":{"type":"MultiLineString","coordinates":[[[79.8874,7.0144],[79.8887,7.0133],[79.8894,7.0123],[79.8907,7.01],[79.8911,7.009],[79.8915,7.009],[79.8919,7.0093]]]}},{"type":"Feature","properties":{"fid":2911,"osm_id":"1305745537","code":8104,"fclass":"drain","width":0,"name":null},"geometry":{"type":"MultiLineString","coordinates":[[[79.8915,7.0878],[79.8915,7.0877]]]}},{"type":"Feature","properties":{"fid":2912,"osm_id":"1305745538","code":8104,"fclass":"drain","width":0,"name":null},"geometry":{"type":"MultiLineString","coordinates":[[[79.8915,7.0879],[79.8915,7.0878]]]}},{"type":"Feature","properties":{"fid":2913,"osm_id":"1305745539","code":8104,"fclass":"drain","width":0,"name":null},"geometry":{"type":"MultiLineString","coordinates":[[[79.8914,7.0878],[79.8915,7.0879]]]}},{"type":"Feature","properties":{"fid":2914,"osm_id":"1305745540","code":8104,"fclass":"drain","width":0,"name":null},"geometry":{"type":"MultiLineString","coordinates":[[[79.891,7.0878],[79.8914,7.0878]]]}},{"type":"Feature","properties":{"fid":2915,"osm_id":"1305745541","code":8104,"fclass":"drain","width":0,"name":null},"geometry":{"type":"MultiLineString","coordinates":[[[79.8916,7.0866],[79.8915,7.0866]]]}},{"type":"Feature","properties":{"fid":2916,"osm_id":"1305745542","code":8104,"fclass":"drain","width":0,"name":null},"geometry":{"type":"MultiLineString","coordinates":[[[79.8915,7.0866],[79.8913,7.0867]]]}},{"type":"Feature","properties":{"fid":96,"osm_id":"416065335","code":8104,"fclass":"drain","width":0,"name":null},"geometry":{"type":"MultiLineString","coordinates":[[[79.8772,7.1217],[79.872,7.1212]]]}},{"type":"Feature","properties":{"fid":2511,"osm_id":"1027344404","code":8104,"fclass":"drain","width":0,"name":null},"geometry":{"type":"MultiLineString","coordinates":[[[79.8753,7.1685],[79.8735,7.1661]]]}},{"type":"Feature","properties":{"fid":2512,"osm_id":"1027344407","code":8104,"fclass":"drain","width":0,"name":null},"geometry":{"type":"MultiLineString","coordinates":[[[79.8757,7.1691],[79.8753,7.1685]]]}},{"type":"Feature","properties":{"fid":2510,"osm_id":"1027344403","code":8104,"fclass":"drain","width":0,"name":null},"geometry":{"type":"MultiLineString","coordinates":[[[79.8798,7.1744],[79.8757,7.1691]]]}},{"type":"Feature","properties":{"fid":2513,"osm_id":"1027344408","code":8104,"fclass":"drain","width":0,"name":null},"geometry":{"type":"MultiLineString","coordinates":[[[79.8802,7.175],[79.8798,7.1744]]]}},{"type":"Feature","properties":{"fid":2509,"osm_id":"1027344402","code":8104,"fclass":"drain","width":0,"name":null},"geometry":{"type":"MultiLineString","coordinates":[[[79.8826,7.178],[79.8802,7.175]]]}},{"type":"Feature","properties":{"fid":2514,"osm_id":"1027344409","code":8104,"fclass":"drain","width":0,"name":null},"geometry":{"type":"MultiLineString","coordinates":[[[79.8831,7.1786],[79.8826,7.178]]]}},{"type":"Feature","properties":{"fid":2523,"osm_id":"1027344418","code":8104,"fclass":"drain","width":0,"name":null},"geometry":{"type":"MultiLineString","coordinates":[[[79.8837,7.1774],[79.883,7.1765]]]}},{"type":"Feature","properties":{"fid":2508,"osm_id":"1027344401","code":8104,"fclass":"drain","width":0,"name":null},"geometry":{"type":"MultiLineString","coordinates":[[[79.8849,7.1811],[79.8831,7.1786]]]}},{"type":"Feature","properties":{"fid":2520,"osm_id":"1027344415","code":8104,"fclass":"drain","width":0,"name":null},"geometry":{"type":"MultiLineString","coordinates":[[[79.8858,7.18],[79.8848,7.1788]]]}},{"type":"Feature","properties":{"fid":2507,"osm_id":"1027344400","code":8104,"fclass":"drain","width":0,"name":null},"geometry":{"type":"MultiLineString","coordinates":[[[79.8853,7.1816],[79.8889,7.1863]]]}},{"type":"Feature","properties":{"fid":2522,"osm_id":"1027344417","code":8104,"fclass":"drain","width":0,"name":null},"geometry":{"type":"MultiLineString","coordinates":[[[79.8862,7.1789],[79.8854,7.1795]]]}},{"type":"Feature","properties":{"fid":2521,"osm_id":"1027344416","code":8104,"fclass":"drain","width":0,"name":null},"geometry":{"type":"MultiLineString","coordinates":[[[79.8865,7.1794],[79.8862,7.179]]]}},{"type":"Feature","properties":{"fid":2518,"osm_id":"1027344413","code":8104,"fclass":"drain","width":0,"name":null},"geometry":{"type":"MultiLineString","coordinates":[[[79.8872,7.1819],[79.8876,7.182]]]}},{"type":"Feature","properties":{"fid":2517,"osm_id":"1027344412","code":8104,"fclass":"drain","width":0,"name":null},"geometry":{"type":"MultiLineString","coordinates":[[[79.8881,7.1814],[79.8876,7.182]]]}},{"type":"Feature","properties":{"fid":2519,"osm_id":"1027344414","code":8104,"fclass":"drain","width":0,"name":null},"geometry":{"type":"MultiLineString","coordinates":[[[79.8876,7.182],[79.888,7.1826]]]}},{"type":"Feature","properties":{"fid":58,"osm_id":"377930600","code":8104,"fclass":"drain","width":0,"name":null},"geometry":{"type":"MultiLineString","coordinates":[[[79.888,7.1826],[79.8964,7.1934]]]}},{"type":"Feature","properties":{"fid":2515,"osm_id":"1027344410","code":8104,"fclass":"drain","width":0,"name":null},"geometry":{"type":"MultiLineString","coordinates":[[[79.8889,7.1863],[79.8894,7.1869]]]}},{"type":"Feature","properties":{"fid":2506,"osm_id":"1027344399","code":8104,"fclass":"drain","width":0,"name":null},"geometry":{"type":"MultiLineString","coordinates":[[[79.8894,7.1869],[79.8935,7.1923]]]}},{"type":"Feature","properties":{"fid":2516,"osm_id":"1027344411","code":8104,"fclass":"drain","width":0,"name":null},"geometry":{"type":"MultiLineString","coordinates":[[[79.8935,7.1923],[79.894,7.1929]]]}},{"type":"Feature","properties":{"fid":2505,"osm_id":"1027344398","code":8104,"fclass":"drain","width":0,"name":null},"geometry":{"type":"MultiLineString","coordinates":[[[79.894,7.1929],[79.8943,7.1931],[79.8947,7.1931],[79.8956,7.1925]]]}},{"type":"Feature","properties":{"fid":2524,"osm_id":"1027344419","code":8104,"fclass":"drain","width":0,"name":null},"geometry":{"type":"MultiLineString","coordinates":[[[79.8826,7.1759],[79.8812,7.1741]]]}},{"type":"Feature","properties":{"fid":2525,"osm_id":"1027344420","code":8104,"fclass":"drain","width":0,"name":null},"geometry":{"type":"MultiLineString","coordinates":[[[79.8808,7.1735],[79.8793,7.1716]]]}},{"type":"Feature","properties":{"fid":2526,"osm_id":"1027344421","code":8104,"fclass":"drain","width":0,"name":null},"geometry":{"type":"MultiLineString","coordinates":[[[79.8788,7.1709],[79.8775,7.1693]]]}},{"type":"Feature","properties":{"fid":2527,"osm_id":"1027344422","code":8104,"fclass":"drain","width":0,"name":null},"geometry":{"type":"MultiLineString","coordinates":[[[79.877,7.1686],[79.8757,7.1669]]]}},{"type":"Feature","properties":{"fid":2528,"osm_id":"1027344423","code":8104,"fclass":"drain","width":0,"name":null},"geometry":{"type":"MultiLineString","coordinates":[[[79.8848,7.1788],[79.8837,7.1774]]]}},{"type":"Feature","properties":{"fid":2529,"osm_id":"1027344424","code":8104,"fclass":"drain","width":0,"name":null},"geometry":{"type":"MultiLineString","coordinates":[[[79.883,7.1765],[79.8826,7.1759]]]}},{"type":"Feature","properties":{"fid":2530,"osm_id":"1027344425","code":8104,"fclass":"drain","width":0,"name":null},"geometry":{"type":"MultiLineString","coordinates":[[[79.8812,7.1741],[79.8808,7.1735]]]}},{"type":"Feature","properties":{"fid":2531,"osm_id":"1027344426","code":8104,"fclass":"drain","width":0,"name":null},"geometry":{"type":"MultiLineString","coordinates":[[[79.8793,7.1716],[79.8788,7.1709]]]}},{"type":"Feature","properties":{"fid":2532,"osm_id":"1027344427","code":8104,"fclass":"drain","width":0,"name":null},"geometry":{"type":"MultiLineString","coordinates":[[[79.8775,7.1693],[79.877,7.1686]]]}},{"type":"Feature","properties":{"fid":2533,"osm_id":"1027344428","code":8104,"fclass":"drain","width":0,"name":null},"geometry":{"type":"MultiLineString","coordinates":[[[79.8814,7.1796],[79.8874,7.1874]]]}},{"type":"Feature","properties":{"fid":2534,"osm_id":"1027344431","code":8104,"fclass":"drain","width":0,"name":null},"geometry":{"type":"MultiLineString","coordinates":[[[79.873,7.1663],[79.8724,7.1677],[79.8727,7.1688],[79.8734,7.1691],[79.8762,7.1728]]]}},{"type":"Feature","properties":{"fid":2535,"osm_id":"1027344432","code":8104,"fclass":"drain","width":0,"name":null},"geometry":{"type":"MultiLineString","coordinates":[[[79.8762,7.1728],[79.8764,7.1731]]]}},{"type":"Feature","properties":{"fid":2536,"osm_id":"1027344433","code":8104,"fclass":"drain","width":0,"name":null},"geometry":{"type":"MultiLineString","coordinates":[[[79.8764,7.1731],[79.8772,7.1741]]]}},{"type":"Feature","properties":{"fid":2537,"osm_id":"1027344434","code":8104,"fclass":"drain","width":0,"name":null},"geometry":{"type":"MultiLineString","coordinates":[[[79.8772,7.1741],[79.8773,7.1743]]]}},{"type":"Feature","properties":{"fid":2538,"osm_id":"1027344435","code":8104,"fclass":"drain","width":0,"name":null},"geometry":{"type":"MultiLineString","coordinates":[[[79.8773,7.1743],[79.8812,7.1794]]]}},{"type":"Feature","properties":{"fid":2539,"osm_id":"1027344436","code":8104,"fclass":"drain","width":0,"name":null},"geometry":{"type":"MultiLineString","coordinates":[[[79.8812,7.1794],[79.8814,7.1796]]]}},{"type":"Feature","properties":{"fid":2540,"osm_id":"1027344437","code":8104,"fclass":"drain","width":0,"name":null},"geometry":{"type":"MultiLineString","coordinates":[[[79.8875,7.1876],[79.8899,7.1907],[79.8899,7.1916],[79.8918,7.195],[79.8917,7.1956]]]}},{"type":"Feature","properties":{"fid":2541,"osm_id":"1027344438","code":8104,"fclass":"drain","width":0,"name":null},"geometry":{"type":"MultiLineString","coordinates":[[[79.8874,7.1874],[79.8875,7.1876]]]}},{"type":"Feature","properties":{"fid":2826,"osm_id":"1226686104","code":8104,"fclass":"drain","width":0,"name":null},"geometry":{"type":"MultiLineString","coordinates":[[[79.8757,7.1669],[79.8751,7.1662]]]}},{"type":"Feature","properties":{"fid":2827,"osm_id":"1226686105","code":8104,"fclass":"drain","width":0,"name":null},"geometry":{"type":"MultiLineString","coordinates":[[[79.8751,7.1662],[79.8746,7.1654]]]}},{"type":"Feature","properties":{"fid":2828,"osm_id":"1226686106","code":8104,"fclass":"drain","width":0,"name":null},"geometry":{"type":"MultiLineString","coordinates":[[[79.8746,7.1654],[79.8745,7.1653]]]}},{"type":"Feature","properties":{"fid":101,"osm_id":"420797900","code":8104,"fclass":"drain","width":0,"name":null},"geometry":{"type":"MultiLineString","coordinates":[[[80.0261,7.1319],[80.0258,7.1314],[80.026,7.1312],[80.0253,7.1306],[80.0251,7.1305],[80.0244,7.131],[80.0238,7.1304],[80.024,7.1301],[80.0239,7.13],[80.024,7.1294],[80.0236,7.1292],[80.0234,7.1287]]]}},{"type":"Feature","properties":{"fid":104,"osm_id":"421862650","code":8104,"fclass":"drain","width":0,"name":null},"geometry":{"type":"MultiLineString","coordinates":[[[80.0141,7.1341],[80.0142,7.1339]]]}},{"type":"Feature","properties":{"fid":103,"osm_id":"421862649","code":8104,"fclass":"drain","width":0,"name":null},"geometry":{"type":"MultiLineString","coordinates":[[[80.0122,7.1376],[80.0132,7.1366],[80.014,7.1354],[80.0141,7.1342]]]}},{"type":"Feature","properties":{"fid":105,"osm_id":"421865349","code":8104,"fclass":"drain","width":0,"name":null},"geometry":{"type":"MultiLineString","coordinates":[[[80.0147,7.1347],[80.0144,7.1362]]]}},{"type":"Feature","properties":{"fid":106,"osm_id":"421866895","code":8104,"fclass":"drain","width":0,"name":null},"geometry":{"type":"MultiLineString","coordinates":[[[80.0133,7.1386],[80.013,7.1375],[80.0132,7.1366]]]}},{"type":"Feature","properties":{"fid":102,"osm_id":"421862647","code":8104,"fclass":"drain","width":0,"name":null},"geometry":{"type":"MultiLineString","coordinates":[[[80.0117,7.1376],[80.0118,7.1375],[80.0122,7.1376]]]}},{"type":"Feature","properties":{"fid":61,"osm_id":"381336495","code":8104,"fclass":"drain","width":0,"name":null},"geometry":{"type":"MultiLineString","coordinates":[[[80.0575,7.1482],[80.0559,7.1482],[80.0531,7.1458]]]}},{"type":"Feature","properties":{"fid":218,"osm_id":"573227888","code":8104,"fclass":"drain","width":0,"name":null},"geometry":{"type":"MultiLineString","coordinates":[[[80.1082,7.1492],[80.108,7.1501],[80.108,7.1508],[80.1076,7.1515],[80.1073,7.1522],[80.1068,7.152]]]}},{"type":"Feature","properties":{"fid":220,"osm_id":"573227891","code":8104,"fclass":"drain","width":0,"name":null},"geometry":{"type":"MultiLineString","coordinates":[[[80.0998,7.15],[80.0996,7.1504]]]}},{"type":"Feature","properties":{"fid":219,"osm_id":"573227889","code":8104,"fclass":"drain","width":0,"name":null},"geometry":{"type":"MultiLineString","coordinates":[[[80.1029,7.1514],[80.1033,7.1518],[80.1042,7.1515]]]}},{"type":"Feature","properties":{"fid":126,"osm_id":"438303139","code":8104,"fclass":"drain","width":0,"name":null},"geometry":{"type":"MultiLineString","coordinates":[[[80.0046,7.1552],[80.0036,7.1568]]]}},{"type":"Feature","properties":{"fid":127,"osm_id":"438344768","code":8104,"fclass":"drain","width":0,"name":null},"geometry":{"type":"MultiLineString","coordinates":[[[80.0155,7.1563],[80.0152,7.1565],[80.015,7.1563],[80.0149,7.1564]]]}},{"type":"Feature","properties":{"fid":125,"osm_id":"438299557","code":8104,"fclass":"drain","width":0,"name":null},"geometry":{"type":"MultiLineString","coordinates":[[[80.0108,7.1596],[80.0117,7.1594],[80.0117,7.1591]]]}},{"type":"Feature","properties":{"fid":124,"osm_id":"438299556","code":8104,"fclass":"drain","width":0,"name":null},"geometry":{"type":"MultiLineString","coordinates":[[[80.0066,7.16],[80.0065,7.1605],[80.0072,7.1604],[80.0108,7.1596]]]}},{"type":"Feature","properties":{"fid":129,"osm_id":"445630343","code":8104,"fclass":"drain","width":0,"name":null},"geometry":{"type":"MultiLineString","coordinates":[[[80.0109,7.16],[80.0108,7.1596]]]}},{"type":"Feature","properties":{"fid":128,"osm_id":"438661903","code":8104,"fclass":"drain","width":0,"name":null},"geometry":{"type":"MultiLineString","coordinates":[[[80.0059,7.1781],[80.0057,7.1775]]]}},{"type":"Feature","properties":{"fid":121,"osm_id":"434609718","code":8104,"fclass":"drain","width":0,"name":null},"geometry":{"type":"MultiLineString","coordinates":[[[80.0213,7.1874],[80.0226,7.1881],[80.0239,7.1885],[80.025,7.1896],[80.0254,7.191]]]}},{"type":"Feature","properties":{"fid":120,"osm_id":"434609716","code":8104,"fclass":"drain","width":0,"name":null},"geometry":{"type":"MultiLineString","coordinates":[[[80.0215,7.1879],[80.0227,7.1886]]]}},{"type":"Feature","properties":{"fid":62,"osm_id":"381706956","code":8104,"fclass":"drain","width":0,"name":null},"geometry":{"type":"MultiLineString","coordinates":[[[80.001,7.2282],[80.0015,7.2288],[80.0025,7.2293],[80.0035,7.2303],[80.0038,7.2304],[80.0048,7.2329],[80.0067,7.2341],[80.0075,7.2348],[80.0089,7.2352],[80.0098,7.2356],[80.0101,7.2365],[80.0105,7.237],[80.0105,7.2375]]]}},{"type":"Feature","properties":{"fid":99,"osm_id":"419586722","code":8104,"fclass":"drain","width":0,"name":null},"geometry":{"type":"MultiLineString","coordinates":[[[79.8961,6.9728],[79.8972,6.9727],[79.8981,6.9723],[79.8986,6.9727],[79.8989,6.9726],[79.8995,6.9736]]]}},{"type":"Feature","properties":{"fid":206,"osm_id":"541337951","code":8104,"fclass":"drain","width":0,"name":null},"geometry":{"type":"MultiLineString","coordinates":[[[79.9009,6.7828],[79.9028,6.7815],[79.9043,6.7811],[79.9048,6.7807]]]}},{"type":"Feature","properties":{"fid":46,"osm_id":"374662743","code":8104,"fclass":"drain","width":0,"name":null},"geometry":{"type":"MultiLineString","coordinates":[[[79.9026,6.9746],[79.9025,6.9735],[79.902,6.9733],[79.9019,6.973],[79.9016,6.9704]]]}},{"type":"Feature","properties":{"fid":47,"osm_id":"374662746","code":8104,"fclass":"drain","width":0,"name":null},"geometry":{"type":"MultiLineString","coordinates":[[[79.9046,6.9643],[79.9045,6.9649],[79.9032,6.9654],[79.9035,6.9669],[79.903,6.9676],[79.9031,6.9685],[79.9028,6.9705]]]}},{"type":"Feature","properties":{"fid":98,"osm_id":"419582293","code":8104,"fclass":"drain","width":0,"name":null},"geometry":{"type":"MultiLineString","coordinates":[[[79.9116,6.9625],[79.9108,6.9628],[79.91,6.9627],[79.9098,6.963],[79.9092,6.9629],[79.9091,6.9627],[79.9087,6.9627],[79.9082,6.9632],[79.9064,6.9635],[79.9057,6.9632]]]}},{"type":"Feature","properties":{"fid":667,"osm_id":"738190407","code":8104,"fclass":"drain","width":0,"name":null},"geometry":{"type":"MultiLineString","coordinates":[[[79.9163,6.9154],[79.9161,6.9153]]]}},{"type":"Feature","properties":{"fid":721,"osm_id":"751456171","code":8104,"fclass":"drain","width":0,"name":null},"geometry":{"type":"MultiLineString","coordinates":[[[79.9339,6.8938],[79.9338,6.8939]]]}},{"type":"Feature","properties":{"fid":720,"osm_id":"751456170","code":8104,"fclass":"drain","width":0,"name":null},"geometry":{"type":"MultiLineString","coordinates":[[[79.9344,6.8931],[79.9339,6.8938]]]}},{"type":"Feature","properties":{"fid":38,"osm_id":"310174107","code":8104,"fclass":"drain","width":0,"name":null},"geometry":{"type":"MultiLineString","coordinates":[[[79.946,6.8901],[79.9453,6.8913],[79.9452,6.8925],[79.9446,6.8936],[79.9446,6.8948],[79.9444,6.8954],[79.9444,6.8957],[79.9452,6.8969],[79.9448,6.8972],[79.9446,6.8983],[79.944,6.8986],[79.9438,6.899]]]}},{"type":"Feature","properties":{"fid":39,"osm_id":"310174108","code":8104,"fclass":"drain","width":0,"name":null},"geometry":{"type":"MultiLineString","coordinates":[[[79.945,6.8955],[79.945,6.8957],[79.9455,6.896]]]}},{"type":"Feature","properties":{"fid":77,"osm_id":"386292335","code":8104,"fclass":"drain","width":0,"name":null},"geometry":{"type":"MultiLineString","coordinates":[[[79.9597,6.7043],[79.9574,6.7044],[79.9565,6.7039],[79.9555,6.7039],[79.9534,6.7023],[79.9533,6.7009],[79.9534,6.7002],[79.9539,6.6985],[79.9543,6.698],[79.9545,6.6968],[79.9541,6.6963],[79.9545,6.6946],[79.9544,6.6932],[79.9547,6.692]]]}},{"type":"Feature","properties":{"fid":660,"osm_id":"710795372","code":8104,"fclass":"drain","width":0,"name":null},"geometry":{"type":"MultiLineString","coordinates":[[[80.0061,6.8536],[80.0066,6.8533],[80.0065,6.8529]]]}},{"type":"Feature","properties":{"fid":44,"osm_id":"370807410","code":8104,"fclass":"drain","width":0,"name":null},"geometry":{"type":"MultiLineString","coordinates":[[[80.0773,6.7141],[80.0778,6.7139],[80.0786,6.7122],[80.0782,6.7104],[80.0791,6.7097],[80.0787,6.708],[80.079,6.7062],[80.079,6.7043],[80.0787,6.7037],[80.0788,6.7019],[80.0791,6.7011],[80.0803,6.7012],[80.0803,6.7011]]]}},{"type":"Feature","properties":{"fid":43,"osm_id":"370807054","code":8104,"fclass":"drain","width":0,"name":null},"geometry":{"type":"MultiLineString","coordinates":[[[80.0829,6.6965],[80.0833,6.6966],[80.0846,6.6962]]]}},{"type":"Feature","properties":{"fid":855,"osm_id":"788756600","code":8104,"fclass":"drain","width":0,"name":null},"geometry":{"type":"MultiLineString","coordinates":[[[80.1232,6.6018],[80.1228,6.603],[80.1214,6.6038],[80.1203,6.605],[80.1192,6.6075],[80.1191,6.6084],[80.1187,6.6089],[80.1184,6.6088],[80.118,6.6085],[80.1176,6.6086],[80.1171,6.6084],[80.1164,6.6085],[80.1157,6.6083],[80.1147,6.6071],[80.1143,6.6063],[80.1132,6.6061],[80.1133,6.6058],[80.1129,6.6055],[80.1123,6.6055],[80.1122,6.6052],[80.1104,6.6039],[80.1091,6.6035],[80.1086,6.603],[80.1045,6.6021]]]}},{"type":"Feature","properties":{"fid":854,"osm_id":"788733158","code":8104,"fclass":"drain","width":0,"name":null},"geometry":{"type":"MultiLineString","coordinates":[[[80.1199,6.582],[80.12,6.5823],[80.1205,6.5823],[80.1215,6.5829],[80.1218,6.5825],[80.1226,6.582],[80.1245,6.5828],[80.1251,6.5839],[80.1256,6.584],[80.1262,6.5845],[80.1268,6.5847],[80.1275,6.5854],[80.1284,6.5855],[80.1289,6.5861],[80.1294,6.5862],[80.1298,6.5866],[80.1306,6.5867],[80.1307,6.587],[80.1302,6.5877],[80.1304,6.588],[80.131,6.5882],[80.1314,6.5888],[80.1323,6.5894],[80.1326,6.5892],[80.1351,6.59],[80.1357,6.5906],[80.1364,6.5908],[80.1371,6.5914],[80.1377,6.5913],[80.1389,6.5917],[80.1396,6.5909],[80.1403,6.5909],[80.1405,6.5906],[80.141,6.5909],[80.1417,6.5906],[80.142,6.5908],[80.1424,6.5906],[80.143,6.5908],[80.1433,6.5912],[80.1439,6.5913],[80.1443,6.5918],[80.1451,6.5919]]]}},{"type":"Feature","properties":{"fid":890,"osm_id":"817502276","code":8104,"fclass":"drain","width":0,"name":null},"geometry":{"type":"MultiLineString","coordinates":[[[80.1289,6.5931],[80.129,6.593],[80.13,6.5932],[80.1304,6.5928],[80.1316,6.5922],[80.1321,6.5924],[80.1327,6.592],[80.1333,6.5918],[80.1338,6.5912],[80.1349,6.5906],[80.1357,6.5905]]]}},{"type":"Feature","properties":{"fid":2739,"osm_id":"1139121321","code":8104,"fclass":"drain","width":0,"name":null},"geometry":{"type":"MultiLineString","coordinates":[[[79.896,6.9728],[79.8961,6.9728]]]}},{"type":"Feature","properties":{"fid":2800,"osm_id":"1157397859","code":8104,"fclass":"drain","width":0,"name":null},"geometry":{"type":"MultiLineString","coordinates":[[[79.9946,6.4857],[79.996,6.4841],[79.9966,6.483],[79.9969,6.4815],[79.9976,6.4811],[79.9976,6.4806],[79.9979,6.4804]]]}},{"type":"Feature","properties":{"fid":2801,"osm_id":"1157397860","code":8104,"fclass":"drain","width":0,"name":null},"geometry":{"type":"MultiLineString","coordinates":[[[79.9968,6.4842],[79.9973,6.4838],[79.9986,6.4834]]]}},{"type":"Feature","properties":{"fid":2818,"osm_id":"1188625165","code":8104,"fclass":"drain","width":0,"name":null},"geometry":{"type":"MultiLineString","coordinates":[[[79.895,6.8213],[79.8976,6.8214]]]}},{"type":"Feature","properties":{"fid":2863,"osm_id":"1257421273","code":8104,"fclass":"drain","width":0,"name":"Culvert"},"geometry":{"type":"MultiLineString","coordinates":[[[79.9264,6.7617],[79.9264,6.7617]]]}},{"type":"Feature","properties":{"fid":2897,"osm_id":"1302282301","code":8104,"fclass":"drain","width":0,"name":null},"geometry":{"type":"MultiLineString","coordinates":[[[79.9057,6.9632],[79.9056,6.9632]]]}},{"type":"Feature","properties":{"fid":2898,"osm_id":"1302282302","code":8104,"fclass":"drain","width":0,"name":null},"geometry":{"type":"MultiLineString","coordinates":[[[79.9056,6.9632],[79.9055,6.9633]]]}},{"type":"Feature","properties":{"fid":168,"osm_id":"466861180","code":8104,"fclass":"drain","width":0,"name":null},"geometry":{"type":"MultiLineString","coordinates":[[[79.9026,7.1121],[79.9035,7.1121],[79.9038,7.1114],[79.9045,7.1115],[79.9049,7.1119]]]}},{"type":"Feature","properties":{"fid":876,"osm_id":"808205279","code":8104,"fclass":"drain","width":0,"name":null},"geometry":{"type":"MultiLineString","coordinates":[[[79.9026,7.1141],[79.9026,7.1141]]]}},{"type":"Feature","properties":{"fid":875,"osm_id":"808205278","code":8104,"fclass":"drain","width":0,"name":null},"geometry":{"type":"MultiLineString","coordinates":[[[79.9026,7.1142],[79.9026,7.1141]]]}},{"type":"Feature","properties":{"fid":170,"osm_id":"466861377","code":8104,"fclass":"drain","width":0,"name":null},"geometry":{"type":"MultiLineString","coordinates":[[[79.9026,7.115],[79.9026,7.1142]]]}},{"type":"Feature","properties":{"fid":169,"osm_id":"466861284","code":8104,"fclass":"drain","width":0,"name":null},"geometry":{"type":"MultiLineString","coordinates":[[[79.9041,7.1128],[79.9046,7.1129]]]}},{"type":"Feature","properties":{"fid":164,"osm_id":"466861054","code":8104,"fclass":"drain","width":0,"name":null},"geometry":{"type":"MultiLineString","coordinates":[[[79.9045,7.1129],[79.9046,7.1124],[79.9049,7.1119],[79.9057,7.1119],[79.9062,7.1117],[79.9071,7.1119],[79.9093,7.1118]]]}},{"type":"Feature","properties":{"fid":95,"osm_id":"406749907","code":8104,"fclass":"drain","width":0,"name":null},"geometry":{"type":"MultiLineString","coordinates":[[[79.9045,7.1129],[79.9056,7.1142],[79.9063,7.1168]]]}},{"type":"Feature","properties":{"fid":165,"osm_id":"466861055","code":8104,"fclass":"drain","width":0,"name":null},"geometry":{"type":"MultiLineString","coordinates":[[[79.9066,7.1134],[79.9065,7.1132],[79.9067,7.1129],[79.9073,7.1125]]]}},{"type":"Feature","properties":{"fid":166,"osm_id":"466861056","code":8104,"fclass":"drain","width":0,"name":null},"geometry":{"type":"MultiLineString","coordinates":[[[79.9073,7.1125],[79.908,7.1119]]]}},{"type":"Feature","properties":{"fid":167,"osm_id":"466861057","code":8104,"fclass":"drain","width":0,"name":null},"geometry":{"type":"MultiLineString","coordinates":[[[79.9075,7.1132],[79.9073,7.1127],[79.9074,7.1124]]]}},{"type":"Feature","properties":{"fid":116,"osm_id":"429816509","code":8104,"fclass":"drain","width":0,"name":null},"geometry":{"type":"MultiLineString","coordinates":[[[79.9188,7.1158],[79.9184,7.1153],[79.9187,7.1147],[79.9181,7.1133],[79.9174,7.1121],[79.9164,7.1108]]]}},{"type":"Feature","properties":{"fid":63,"osm_id":"382398776","code":8104,"fclass":"drain","width":0,"name":null},"geometry":{"type":"MultiLineString","coordinates":[[[79.924,7.1052],[79.9241,7.1056],[79.9251,7.1068],[79.9245,7.1073],[79.9244,7.1079],[79.923,7.1089],[79.9223,7.1088],[79.9216,7.1094],[79.9216,7.1096],[79.9206,7.109],[79.9201,7.1092]]]}},{"type":"Feature","properties":{"fid":100,"osm_id":"420499750","code":8104,"fclass":"drain","width":0,"name":null},"geometry":{"type":"MultiLineString","coordinates":[[[79.9217,7.1169],[79.9221,7.1167],[79.923,7.1169],[79.9239,7.1169],[79.9237,7.1163],[79.9241,7.1156],[79.9237,7.1149]]]}},{"type":"Feature","properties":{"fid":97,"osm_id":"418934550","code":8104,"fclass":"drain","width":0,"name":null},"geometry":{"type":"MultiLineString","coordinates":[[[79.9249,7.1196],[79.9245,7.1196],[79.9244,7.1193],[79.9234,7.1187],[79.923,7.1179],[79.9234,7.1172],[79.9234,7.1169]]]}},{"type":"Feature","properties":{"fid":52,"osm_id":"376484414","code":8104,"fclass":"drain","width":0,"name":null},"geometry":{"type":"MultiLineString","coordinates":[[[79.9305,7.1066],[79.9298,7.1063],[79.9291,7.1068],[79.9289,7.108],[79.9286,7.1084],[79.9283,7.1094],[79.9284,7.1101],[79.9282,7.1104],[79.9281,7.1105],[79.927,7.1106],[79.9269,7.1109],[79.9264,7.1108]]]}},{"type":"Feature","properties":{"fid":57,"osm_id":"376928495","code":8104,"fclass":"drain","width":0,"name":null},"geometry":{"type":"MultiLineString","coordinates":[[[79.9318,7.1124],[79.9314,7.1126],[79.9307,7.1125],[79.9303,7.1128],[79.9299,7.1126],[79.9294,7.1129],[79.9288,7.113],[79.9285,7.113],[79.9278,7.1128]]]}},{"type":"Feature","properties":{"fid":110,"osm_id":"428091440","code":8104,"fclass":"drain","width":0,"name":null},"geometry":{"type":"MultiLineString","coordinates":[[[79.9314,7.1116],[79.9317,7.1124]]]}},{"type":"Feature","properties":{"fid":108,"osm_id":"428083494","code":8104,"fclass":"drain","width":0,"name":null},"geometry":{"type":"MultiLineString","coordinates":[[[79.9329,7.1124],[79.9325,7.1127],[79.9318,7.1124]]]}},{"type":"Feature","properties":{"fid":107,"osm_id":"428083492","code":8104,"fclass":"drain","width":0,"name":null},"geometry":{"type":"MultiLineString","coordinates":[[[79.9327,7.1131],[79.9329,7.1124],[79.9337,7.1116],[79.9335,7.1107]]]}},{"type":"Feature","properties":{"fid":109,"osm_id":"428091435","code":8104,"fclass":"drain","width":0,"name":null},"geometry":{"type":"MultiLineString","coordinates":[[[79.9329,7.1124],[79.9334,7.1125],[79.9339,7.1119],[79.9344,7.1115]]]}},{"type":"Feature","properties":{"fid":81,"osm_id":"394257588","code":8104,"fclass":"drain","width":0,"name":null},"geometry":{"type":"MultiLineString","coordinates":[[[79.9384,7.1034],[79.9399,7.1029],[79.9409,7.1042],[79.9415,7.1045],[79.9423,7.1045],[79.9429,7.1049]]]}},{"type":"Feature","properties":{"fid":117,"osm_id":"430694041","code":8104,"fclass":"drain","width":0,"name":null},"geometry":{"type":"MultiLineString","coordinates":[[[79.9412,7.1071],[79.9419,7.1072],[79.9433,7.1087]]]}},{"type":"Feature","properties":{"fid":227,"osm_id":"579328165","code":8104,"fclass":"drain","width":0,"name":null},"geometry":{"type":"MultiLineString","coordinates":[[[79.9416,7.1084],[79.9425,7.1079]]]}},{"type":"Feature","properties":{"fid":53,"osm_id":"376493613","code":8104,"fclass":"drain","width":0,"name":null},"geometry":{"type":"MultiLineString","coordinates":[[[79.9442,7.1047],[79.9439,7.1051],[79.9434,7.1053],[79.9433,7.1056],[79.943,7.1056],[79.9428,7.1058],[79.943,7.1075],[79.9425,7.1079]]]}},{"type":"Feature","properties":{"fid":115,"osm_id":"428735934","code":8104,"fclass":"drain","width":0,"name":null},"geometry":{"type":"MultiLineString","coordinates":[[[79.9466,7.1231],[79.9466,7.1229]]]}},{"type":"Feature","properties":{"fid":123,"osm_id":"435264366","code":8104,"fclass":"drain","width":0,"name":null},"geometry":{"type":"MultiLineString","coordinates":[[[79.9695,7.1125],[79.9699,7.1119],[79.9701,7.1119],[79.9701,7.1113],[79.9712,7.1099],[79.9716,7.1089],[79.9718,7.1088]]]}},{"type":"Feature","properties":{"fid":122,"osm_id":"435264365","code":8104,"fclass":"drain","width":0,"name":null},"geometry":{"type":"MultiLineString","coordinates":[[[79.9723,7.1099],[79.9719,7.1094],[79.9716,7.1084],[79.9717,7.1069],[79.9712,7.1065]]]}},{"type":"Feature","properties":{"fid":114,"osm_id":"428367092","code":8104,"fclass":"drain","width":0,"name":null},"geometry":{"type":"MultiLineString","coordinates":[[[79.9767,7.176],[79.9771,7.1759]]]}},{"type":"Feature","properties":{"fid":111,"osm_id":"428365261","code":8104,"fclass":"drain","width":0,"name":null},"geometry":{"type":"MultiLineString","coordinates":[[[79.9843,7.178],[79.9832,7.1778],[79.9821,7.1778],[79.9812,7.1781],[79.9806,7.1784],[79.98,7.1789],[79.9791,7.1792]]]}},{"type":"Feature","properties":{"fid":112,"osm_id":"428365262","code":8104,"fclass":"drain","width":0,"name":null},"geometry":{"type":"MultiLineString","coordinates":[[[79.985,7.1783],[79.9844,7.1784],[79.9832,7.1783],[79.9819,7.1785]]]}},{"type":"Feature","properties":{"fid":113,"osm_id":"428365264","code":8104,"fclass":"drain","width":0,"name":null},"geometry":{"type":"MultiLineString","coordinates":[[[79.9851,7.1788],[79.9844,7.1784]]]}},{"type":"Feature","properties":{"fid":2917,"osm_id":"1307935201","code":8104,"fclass":"drain","width":0,"name":null},"geometry":{"type":"MultiLineString","coordinates":[[[79.9258,7.1116],[79.9257,7.1113],[79.9252,7.1114],[79.9246,7.1117],[79.9243,7.1112],[79.9221,7.1114],[79.9217,7.112],[79.9211,7.112],[79.9202,7.1123],[79.9199,7.1126],[79.9194,7.1139],[79.9186,7.1144]]]}},{"type":"Feature","properties":{"fid":352,"osm_id":"591731609","code":8104,"fclass":"drain","width":0,"name":null},"geometry":{"type":"MultiLineString","coordinates":[[[79.8786,6.824],[79.8793,6.8228]]]}},{"type":"Feature","properties":{"fid":376,"osm_id":"591740920","code":8104,"fclass":"drain","width":0,"name":null},"geometry":{"type":"MultiLineString","coordinates":[[[79.8801,6.8238],[79.8804,6.8234]]]}},{"type":"Feature","properties":{"fid":375,"osm_id":"591740916","code":8104,"fclass":"drain","width":0,"name":null},"geometry":{"type":"MultiLineString","coordinates":[[[79.8802,6.8239],[79.8804,6.8234]]]}},{"type":"Feature","properties":{"fid":2578,"osm_id":"1060951716","code":8104,"fclass":"drain","width":0,"name":null},"geometry":{"type":"MultiLineString","coordinates":[[[79.8706,6.8235],[79.8706,6.8234]]]}},{"type":"Feature","properties":{"fid":334,"osm_id":"591337266","code":8104,"fclass":"drain","width":0,"name":null},"geometry":{"type":"MultiLineString","coordinates":[[[79.8678,6.8304],[79.8706,6.8235]]]}},{"type":"Feature","properties":{"fid":351,"osm_id":"591726661","code":8104,"fclass":"drain","width":0,"name":null},"geometry":{"type":"MultiLineString","coordinates":[[[79.8814,6.8256],[79.8781,6.8237]]]}},{"type":"Feature","properties":{"fid":368,"osm_id":"591738631","code":8104,"fclass":"drain","width":0,"name":null},"geometry":{"type":"MultiLineString","coordinates":[[[79.8816,6.8241],[79.8816,6.8241]]]}},{"type":"Feature","properties":{"fid":369,"osm_id":"591738632","code":8104,"fclass":"drain","width":0,"name":null},"geometry":{"type":"MultiLineString","coordinates":[[[79.8816,6.8241],[79.8814,6.8256]]]}},{"type":"Feature","properties":{"fid":190,"osm_id":"509576489","code":8104,"fclass":"drain","width":0,"name":null},"geometry":{"type":"MultiLineString","coordinates":[[[79.8782,6.8326],[79.8755,6.8352],[79.8752,6.8353],[79.8748,6.8359],[79.8755,6.8371],[79.878,6.8366],[79.8782,6.8371]]]}},{"type":"Feature","properties":{"fid":193,"osm_id":"509576495","code":8104,"fclass":"drain","width":0,"name":null},"geometry":{"type":"MultiLineString","coordinates":[[[79.8714,6.8346],[79.8715,6.8349],[79.8711,6.8356],[79.8714,6.8358],[79.8725,6.836],[79.874,6.8359],[79.8744,6.8357],[79.8748,6.8359]]]}},{"type":"Feature","properties":{"fid":191,"osm_id":"509576490","code":8104,"fclass":"drain","width":0,"name":null},"geometry":{"type":"MultiLineString","coordinates":[[[79.8814,6.837],[79.8814,6.8367],[79.881,6.8363],[79.8801,6.8358],[79.8794,6.836],[79.878,6.8366]]]}},{"type":"Feature","properties":{"fid":192,"osm_id":"509576492","code":8104,"fclass":"drain","width":0,"name":null},"geometry":{"type":"MultiLineString","coordinates":[[[79.8748,6.8359],[79.8745,6.8361],[79.8747,6.8366],[79.8757,6.8386]]]}},{"type":"Feature","properties":{"fid":189,"osm_id":"509575493","code":8104,"fclass":"drain","width":0,"name":null},"geometry":{"type":"MultiLineString","coordinates":[[[79.8715,6.843],[79.8747,6.8392],[79.8758,6.8385],[79.8784,6.8384]]]}},{"type":"Feature","properties":{"fid":12,"osm_id":"140008973","code":8104,"fclass":"drain","width":0,"name":null},"geometry":{"type":"MultiLineString","coordinates":[[[79.8706,6.8439],[79.8715,6.843]]]}},{"type":"Feature","properties":{"fid":209,"osm_id":"553276932","code":8104,"fclass":"drain","width":0,"name":null},"geometry":{"type":"MultiLineString","coordinates":[[[79.8776,6.9279],[79.8795,6.9273],[79.88,6.9256],[79.8804,6.9249],[79.8815,6.9237],[79.8825,6.9223],[79.8828,6.9216],[79.8829,6.9184]]]}},{"type":"Feature","properties":{"fid":2160,"osm_id":"971160883","code":8104,"fclass":"drain","width":0,"name":null},"geometry":{"type":"MultiLineString","coordinates":[[[79.8741,6.9248],[79.8747,6.9257],[79.8748,6.9267],[79.8746,6.9278],[79.8749,6.9284],[79.8759,6.9289],[79.8776,6.9279]]]}},{"type":"Feature","properties":{"fid":2159,"osm_id":"971160882","code":8104,"fclass":"drain","width":0,"name":null},"geometry":{"type":"MultiLineString","coordinates":[[[79.8776,6.9279],[79.8776,6.9279]]]}}]}