{"type":"FeatureCollection","name":"western_province","crs":{"type":"name","properties":{"name":"urn:ogc:def:crs:OGC:1.3:CRS84"}},"features":[{"type":"Feature","properties":{"ADM1_EN":"Western","ADM1_SI":"\u0db6\u0dc3\u0dca\u0db1\u0dcf\u0dc4\u0dd2\u0dbb \u0db4\u0dc5\u0dcf\u0dad","ADM1_TA":"\u0bae\u0bc7\u0bb2\u0bcd \u0bae\u0bbe\u0b95\u0bbe\u0ba3\u0bae\u0bcd\u00a0","ADM1_PCODE":"LK1","ADM0_EN":"Sri Lanka","ADM0_SI":"\u0dc1\u0dca\u200d\u0dbb\u0dd3 \u0dbd\u0d82\u0d9a\u0dcf","ADM0_TA":"\u0b87\u0bb2\u0b99\u0bcd\u0b95\u0bc8","ADM0_PCODE":"LK","date":"2022-08-02","validOn":"2022-08-16","validTo":null,"Shape_Leng":3.80085640421,"Shape_Area":0.3069080376},"geometry":{"type":"MultiPolygon","coordinates":[[[[79.9793,6.4416],[79.979,6.4415],[79.9793,6.4416]]],[[[79.9788,6.4471],[79.9794,6.447],[79.9791,6.4465],[79.9785,6.4466],[79.9784,6.447],[79.9788,6.4471]]],[[[79.9772,6.4522],[79.979,6.45],[79.9796,6.4479],[79.978,6.451],[79.977,6.452],[79.9769,6.4526],[79.9772,6.4522]]],[[[79.9687,6.4643],[79.9698,6.4638],[79.9705,6.4625],[79.9703,6.4619],[79.9699,6.4622],[79.9694,6.4614],[79.9692,6.462],[79.9683,6.4621],[79.9682,6.4625],[79.9675,6.4628],[79.9681,6.4643],[79.9687,6.4643]]],[[[79.9717,6.4688],[79.9714,6.4692],[79.9715,6.4698],[79.9721,6.4694],[79.9717,6.4688]]],[[[79.9705,6.4721],[79.9709,6.4721],[79.9709,6.4709],[79.9704,6.4706],[79.97,6.4717],[79.9702,6.4723],[79.9705,6.4721]]],[[[80.1489,7.3124],[80.1489,7.3113],[80.1475,7.3093],[80.1431,7.3064],[80.143,7.305],[80.1436,7.3037],[80.1472,7.2997],[80.1515,7.2982],[80.1535,7.2967],[80.155,7.2948],[80.155,7.2934],[80.1575,7.2918],[80.1584,7.2907],[80.1594,7.2903],[80.1617,7.2903],[80.1634,7.2898],[80.1659,7.2875],[80.1677,7.2865],[80.1689,7.2847],[80.1698,7.2809],[80.1706,7.28],[80.1727,7.2789],[80.1747,7.2772],[80.1757,7.276],[80.1769,7.2732],[80.1782,7.2713],[80.1826,7.2675],[80.1833,7.266],[80.1834,7.2634],[80.1845,7.2614],[80.1854,7.2611],[80.1864,7.2614],[80.1874,7.262],[80.1889,7.2637],[80.1899,7.2638],[80.1905,7.2636],[80.1938,7.2598],[80.196,7.2582],[80.1957,7.2565],[80.1959,7.2558],[80.2005,7.2511],[80.2006,7.2451],[80.1958,7.2406],[80.1936,7.2402],[80.1906,7.2391],[80.1885,7.2377],[80.1872,7.2365],[80.1867,7.2352],[80.1867,7.2347],[80.1891,7.2311],[80.189,7.2298],[80.1885,7.2283],[80.1894,7.2272],[80.1889,7.226],[80.1876,7.2249],[80.1876,7.2233],[80.1884,7.2209],[80.1852,7.2145],[80.1846,7.2121],[80.1844,7.2104],[80.1847,7.2088],[80.1862,7.2057],[80.1862,7.2039],[80.1855,7.2032],[80.1851,7.2019],[80.1835,7.1995],[80.1834,7.1989],[80.1845,7.1966],[80.1844,7.1961],[80.1824,7.1938],[80.1814,7.1936],[80.1791,7.1941],[80.1779,7.1938],[80.1764,7.194],[80.1743,7.1948],[80.1739,7.1939],[80.1732,7.1947],[80.1724,7.1944],[80.169,7.1946],[80.1679,7.1926],[80.166,7.1919],[80.164,7.193],[80.1641,7.1938],[80.1638,7.1942],[80.163,7.1942],[80.1626,7.1936],[80.1618,7.1933],[80.1609,7.1918],[80.1605,7.1907],[80.1611,7.19],[80.1611,7.1888],[80.1606,7.1885],[80.1606,7.1877],[80.1602,7.1872],[80.1598,7.1849],[80.1588,7.1844],[80.1578,7.1845],[80.1559,7.1854],[80.1552,7.1867],[80.1548,7.1896],[80.1539,7.192],[80.153,7.1927],[80.1514,7.1925],[80.1504,7.1896],[80.1474,7.1898],[80.1468,7.1896],[80.1462,7.189],[80.1464,7.1874],[80.1472,7.1867],[80.1497,7.1853],[80.1529,7.1842],[80.1539,7.1832],[80.1555,7.1726],[80.1573,7.167],[80.1566,7.1641],[80.1563,7.1601],[80.1548,7.1531],[80.1539,7.1507],[80.1552,7.1483],[80.1564,7.1446],[80.1584,7.1407],[80.1589,7.136],[80.1593,7.136],[80.1603,7.1334],[80.1605,7.1326],[80.1603,7.1323],[80.1606,7.1323],[80.1615,7.1289],[80.1633,7.1251],[80.165,7.1251],[80.1657,7.1261],[80.168,7.126],[80.1674,7.1285],[80.1694,7.1296],[80.1694,7.1304],[80.1702,7.1305],[80.172,7.134],[80.1728,7.1344],[80.1735,7.1357],[80.1747,7.1362],[80.1786,7.1363],[80.1798,7.1368],[80.1832,7.1371],[80.1896,7.1363],[80.1942,7.1376],[80.1952,7.1368],[80.1976,7.1361],[80.199,7.1347],[80.2008,7.1354],[80.202,7.1369],[80.203,7.137],[80.2056,7.1352],[80.2092,7.1351],[80.2098,7.1348],[80.2124,7.1329],[80.2127,7.1322],[80.2128,7.1311],[80.2124,7.1304],[80.2077,7.1285],[80.2035,7.1196],[80.1992,7.1171],[80.1989,7.1166],[80.1984,7.1144],[80.1969,7.1114],[80.1962,7.102],[80.1956,7.1011],[80.1949,7.101],[80.195,7.1004],[80.1934,7.1011],[80.1912,7.1012],[80.1899,7.1024],[80.1874,7.1028],[80.1867,7.1034],[80.1859,7.1032],[80.187,7.1002],[80.1862,7.0968],[80.1864,7.0949],[80.1839,7.0938],[80.1827,7.0902],[80.1797,7.0852],[80.1779,7.0835],[80.1772,7.0824],[80.1765,7.0787],[80.1742,7.0722],[80.1729,7.0708],[80.1668,7.066],[80.1668,7.0641],[80.1684,7.0618],[80.1662,7.0605],[80.1648,7.0601],[80.1643,7.0586],[80.1646,7.0576],[80.1642,7.0561],[80.1664,7.0546],[80.1678,7.0524],[80.1679,7.0512],[80.169,7.0488],[80.1683,7.0464],[80.1686,7.0459],[80.168,7.0447],[80.1679,7.0409],[80.1702,7.0353],[80.1708,7.0225],[80.1738,7.0152],[80.1747,7.0084],[80.1759,7.0062],[80.178,7.004],[80.1798,7.0013],[80.1818,6.9969],[80.1818,6.995],[80.1824,6.9933],[80.1821,6.9914],[80.1828,6.9889],[80.1828,6.9884],[80.1814,6.9867],[80.182,6.9839],[80.1818,6.9812],[80.1813,6.9796],[80.1796,6.9784],[80.1793,6.9776],[80.1815,6.9766],[80.1833,6.9752],[80.1842,6.9751],[80.1869,6.9757],[80.1894,6.9784],[80.19,6.9786],[80.1945,6.9773],[80.2002,6.9761],[80.2011,6.9763],[80.207,6.9788],[80.2091,6.9781],[80.2112,6.9767],[80.2134,6.9765],[80.2147,6.9742],[80.2164,6.9754],[80.2168,6.9754],[80.2182,6.9728],[80.2178,6.9715],[80.2178,6.9681],[80.2172,6.9663],[80.2171,6.9633],[80.2185,6.9599],[80.2175,6.9579],[80.2174,6.9569],[80.2177,6.9561],[80.22,6.9542],[80.2203,6.9535],[80.2211,6.9533],[80.2209,6.9515],[80.2214,6.9513],[80.2221,6.9517],[80.2231,6.9498],[80.2231,6.9486],[80.2226,6.9478],[80.2231,6.9473],[80.223,6.9461],[80.2225,6.9453],[80.2239,6.9416],[80.2233,6.9414],[80.223,6.9402],[80.2215,6.9388],[80.2217,6.9371],[80.2212,6.9362],[80.2201,6.9359],[80.2183,6.9364],[80.2178,6.9361],[80.2166,6.9362],[80.2154,6.937],[80.2148,6.9367],[80.2145,6.9372],[80.2093,6.938],[80.2081,6.9375],[80.2127,6.9233],[80.2128,6.922],[80.2124,6.9204],[80.2105,6.9171],[80.2111,6.9168],[80.2104,6.9159],[80.2083,6.9143],[80.2069,6.9137],[80.2048,6.9135],[80.2039,6.9129],[80.2026,6.9108],[80.2004,6.9086],[80.1997,6.9071],[80.1997,6.9049],[80.1991,6.9036],[80.1971,6.9037],[80.1945,6.9043],[80.1937,6.9038],[80.1912,6.9006],[80.1897,6.8997],[80.1888,6.8985],[80.1901,6.894],[80.1899,6.8931],[80.188,6.8902],[80.1845,6.8869],[80.184,6.8859],[80.1816,6.8756],[80.1807,6.8673],[80.1796,6.8658],[80.1784,6.8653],[80.1769,6.8631],[80.1755,6.8599],[80.1756,6.8578],[80.1767,6.8577],[80.1829,6.8559],[80.1875,6.8549],[80.192,6.8533],[80.1948,6.8515],[80.195,6.8492],[80.1961,6.8454],[80.1983,6.8426],[80.1991,6.8407],[80.1996,6.8351],[80.203,6.8303],[80.2033,6.8267],[80.2024,6.8184],[80.2013,6.8158],[80.1991,6.8143],[80.1959,6.8142],[80.1893,6.8148],[80.1881,6.8172],[80.188,6.8183],[80.1875,6.8187],[80.1859,6.8159],[80.1826,6.8155],[80.1805,6.8144],[80.1794,6.8146],[80.1788,6.8158],[80.1777,6.816],[80.1788,6.8078],[80.1796,6.806],[80.1797,6.8049],[80.1831,6.795],[80.1863,6.7933],[80.1869,6.7901],[80.1869,6.7877],[80.1909,6.7844],[80.1925,6.7837],[80.193,6.7827],[80.1938,6.7782],[80.1933,6.7772],[80.1924,6.777],[80.1913,6.7741],[80.1914,6.7734],[80.1909,6.7712],[80.1931,6.7647],[80.1923,6.7638],[80.1925,6.7609],[80.1941,6.7574],[80.1997,6.7479],[80.2011,6.7439],[80.2033,6.7409],[80.2038,6.7393],[80.2043,6.7356],[80.2061,6.7323],[80.2053,6.7305],[80.202,6.7312],[80.1992,6.7313],[80.1987,6.7304],[80.1992,6.7288],[80.1991,6.7266],[80.2012,6.7265],[80.2027,6.7235],[80.204,6.7222],[80.2047,6.7221],[80.2043,6.7216],[80.2029,6.7213],[80.2028,6.7205],[80.2035,6.7197],[80.2049,6.7191],[80.2054,6.7174],[80.2071,6.7147],[80.2069,6.7132],[80.208,6.7128],[80.2084,6.7133],[80.2087,6.7132],[80.2099,6.7109],[80.2107,6.7084],[80.2105,6.7075],[80.2111,6.7054],[80.2139,6.7003],[80.2139,6.6997],[80.213,6.6992],[80.2134,6.6979],[80.2144,6.696],[80.2154,6.6954],[80.215,6.6948],[80.2156,6.694],[80.2161,6.6914],[80.2204,6.6915],[80.2211,6.6902],[80.2217,6.6899],[80.2221,6.6886],[80.2236,6.6859],[80.2242,6.684],[80.2256,6.6815],[80.2287,6.6783],[80.2319,6.6763],[80.238,6.6717],[80.2394,6.671],[80.2414,6.6707],[80.2424,6.669],[80.2432,6.6654],[80.2438,6.6648],[80.2455,6.6643],[80.2476,6.6605],[80.2495,6.6585],[80.2505,6.6558],[80.2499,6.6553],[80.2498,6.6546],[80.2506,6.6542],[80.2514,6.6541],[80.2516,6.6538],[80.2514,6.6521],[80.2517,6.6482],[80.2514,6.6455],[80.2489,6.6424],[80.2491,6.6395],[80.2499,6.6357],[80.2505,6.6347],[80.2529,6.6327],[80.2535,6.6318],[80.255,6.6271],[80.2587,6.6243],[80.2607,6.6224],[80.2641,6.6219],[80.2681,6.6204],[80.2706,6.6201],[80.2725,6.619],[80.2741,6.6173],[80.2747,6.6176],[80.2751,6.6184],[80.2762,6.6186],[80.2783,6.6181],[80.2804,6.6186],[80.2819,6.6183],[80.2832,6.616],[80.2847,6.6152],[80.2854,6.6152],[80.286,6.6138],[80.287,6.6124],[80.2877,6.6119],[80.2887,6.6097],[80.2902,6.6081],[80.2907,6.6068],[80.2919,6.6051],[80.2954,6.6027],[80.2968,6.6009],[80.2983,6.6003],[80.2983,6.5998],[80.2976,6.5993],[80.2981,6.5985],[80.3,6.5974],[80.3011,6.5974],[80.3041,6.5955],[80.3042,6.5939],[80.3052,6.5933],[80.305,6.5928],[80.3064,6.5892],[80.3065,6.5881],[80.307,6.5876],[80.3073,6.5859],[80.307,6.5851],[80.3098,6.5813],[80.3106,6.5791],[80.3103,6.5784],[80.311,6.5765],[80.3118,6.5749],[80.3128,6.5742],[80.3133,6.5734],[80.3137,6.5717],[80.3144,6.5707],[80.3136,6.5703],[80.3123,6.5702],[80.3116,6.5707],[80.3108,6.5699],[80.3098,6.5706],[80.309,6.5706],[80.3091,6.5694],[80.3088,6.5688],[80.308,6.5682],[80.3072,6.5681],[80.3065,6.5674],[80.3053,6.5671],[80.304,6.5676],[80.3027,6.5673],[80.3021,6.5675],[80.2983,6.5666],[80.2955,6.5644],[80.2952,6.5627],[80.2958,6.5609],[80.298,6.5585],[80.301,6.5538],[80.303,6.5484],[80.3045,6.546],[80.3049,6.5451],[80.305,6.5406],[80.3057,6.5382],[80.3076,6.5363],[80.3096,6.5357],[80.3118,6.5345],[80.3138,6.532],[80.3246,6.515],[80.3275,6.5108],[80.3295,6.5068],[80.3324,6.503],[80.3345,6.499],[80.3386,6.4927],[80.3453,6.4828],[80.3561,6.4684],[80.3581,6.4635],[80.3619,6.4575],[80.3804,6.4349],[80.3788,6.4301],[80.379,6.4286],[80.3809,6.4261],[80.3792,6.425],[80.3788,6.4249],[80.3773,6.4264],[80.376,6.429],[80.3757,6.4291],[80.3733,6.4277],[80.3725,6.4277],[80.3705,6.4269],[80.3694,6.4269],[80.369,6.4274],[80.3685,6.4275],[80.365,6.4245],[80.3621,6.4227],[80.3615,6.4219],[80.3589,6.4204],[80.3578,6.4187],[80.3564,6.4177],[80.3551,6.4177],[80.3526,6.4197],[80.3484,6.4168],[80.3349,6.4111],[80.3302,6.4086],[80.3271,6.4068],[80.3257,6.4054],[80.3236,6.404],[80.3182,6.4011],[80.3155,6.3984],[80.314,6.3977],[80.3128,6.3967],[80.3113,6.3968],[80.3055,6.3959],[80.3038,6.396],[80.2989,6.3972],[80.2966,6.396],[80.2957,6.3963],[80.2945,6.3949],[80.2943,6.3951],[80.2947,6.3944],[80.2946,6.394],[80.2934,6.3936],[80.2932,6.3946],[80.2924,6.3945],[80.2924,6.3935],[80.2919,6.3935],[80.2916,6.3943],[80.291,6.3935],[80.2904,6.3926],[80.2904,6.392],[80.2895,6.3911],[80.2893,6.3896],[80.2903,6.3704],[80.2956,6.3529],[80.299,6.3467],[80.3013,6.335],[80.301,6.3341],[80.2995,6.3323],[80.2992,6.3261],[80.2989,6.3254],[80.2975,6.3249],[80.2949,6.325],[80.2931,6.3271],[80.2909,6.3309],[80.2897,6.332],[80.2864,6.3336],[80.2847,6.3354],[80.2837,6.3371],[80.2821,6.3412],[80.2756,6.3489],[80.2748,6.3493],[80.2692,6.3497],[80.2674,6.3509],[80.2639,6.3553],[80.259,6.359],[80.254,6.3649],[80.2524,6.366],[80.2485,6.3665],[80.2474,6.3672],[80.2467,6.3683],[80.2454,6.3727],[80.2421,6.3755],[80.239,6.377],[80.2361,6.3774],[80.2333,6.377],[80.2303,6.377],[80.2272,6.3785],[80.2179,6.3803],[80.2172,6.3799],[80.2159,6.3767],[80.2131,6.3736],[80.2122,6.3715],[80.211,6.3716],[80.2087,6.3711],[80.2083,6.3721],[80.2064,6.3724],[80.207,6.3715],[80.2063,6.3707],[80.2068,6.37],[80.2067,6.3689],[80.208,6.3672],[80.2078,6.365],[80.2068,6.3638],[80.2068,6.362],[80.2077,6.3608],[80.2076,6.3599],[80.2067,6.36],[80.2065,6.3597],[80.204,6.3591],[80.2022,6.3595],[80.2018,6.3583],[80.2012,6.358],[80.1969,6.3583],[80.1898,6.3546],[80.1887,6.3552],[80.1888,6.3562],[80.1885,6.3568],[80.1864,6.3583],[80.18,6.3594],[80.1786,6.36],[80.1764,6.3594],[80.172,6.36],[80.1702,6.3599],[80.1673,6.3612],[80.1655,6.3628],[80.163,6.3633],[80.1581,6.3654],[80.1563,6.3663],[80.1545,6.3678],[80.1525,6.3674],[80.1514,6.3677],[80.1457,6.3676],[80.141,6.3665],[80.1388,6.3678],[80.1375,6.3674],[80.1361,6.3663],[80.1357,6.3665],[80.1356,6.3674],[80.1323,6.368],[80.1318,6.3662],[80.1308,6.3657],[80.1282,6.3696],[80.1273,6.3699],[80.1258,6.3696],[80.1229,6.3705],[80.1206,6.3736],[80.1194,6.378],[80.1169,6.3819],[80.1121,6.3864],[80.1084,6.389],[80.1037,6.391],[80.0988,6.3939],[80.0967,6.3947],[80.0894,6.4001],[80.0853,6.402],[80.0822,6.402],[80.0799,6.4016],[80.0788,6.4011],[80.0768,6.3989],[80.0744,6.3979],[80.0716,6.3976],[80.0691,6.3982],[80.0667,6.3999],[80.066,6.4009],[80.0645,6.405],[80.0628,6.4073],[80.0616,6.4079],[80.0597,6.4086],[80.057,6.4083],[80.0556,6.4085],[80.0523,6.4121],[80.0496,6.4142],[80.0475,6.415],[80.0423,6.4157],[80.0382,6.4193],[80.0309,6.4193],[80.0296,6.4197],[80.0281,6.4207],[80.0263,6.4232],[80.0239,6.43],[80.0228,6.4314],[80.0142,6.436],[80.0115,6.4369],[80.009,6.4372],[80.0065,6.4363],[80.0051,6.4335],[80.0046,6.4317],[80.005,6.4305],[80.0044,6.4287],[80.0026,6.4273],[80.0008,6.4267],[79.9991,6.4263],[79.9979,6.4264],[79.9966,6.4275],[79.9949,6.4333],[79.9923,6.4393],[79.9899,6.4414],[79.9855,6.4436],[79.9853,6.4447],[79.9821,6.4477],[79.9797,6.4485],[79.979,6.4509],[79.9785,6.4516],[79.9772,6.4524],[79.9776,6.4526],[79.9773,6.4539],[79.9775,6.4549],[79.9774,6.4561],[79.9764,6.4579],[79.9743,6.4599],[79.9743,6.4628],[79.975,6.4672],[79.9745,6.469],[79.9733,6.4702],[79.9754,6.4719],[79.9755,6.473],[79.976,6.4732],[79.9763,6.4742],[79.9792,6.4765],[79.9815,6.4776],[79.9823,6.4776],[79.9827,6.479],[79.9829,6.4847],[79.982,6.489],[79.9819,6.4915],[79.9808,6.4941],[79.9808,6.4954],[79.9789,6.5],[79.9774,6.5026],[79.9763,6.5029],[79.9769,6.5033],[79.9771,6.5043],[79.9763,6.5049],[79.976,6.5057],[79.9761,6.5061],[79.9766,6.5062],[79.9772,6.5056],[79.9781,6.5054],[79.9792,6.5065],[79.9791,6.5077],[79.9795,6.5079],[79.9802,6.5071],[79.9813,6.5087],[79.9815,6.5105],[79.9812,6.5123],[79.9801,6.5145],[79.9801,6.5164],[79.9679,6.5476],[79.9652,6.5536],[79.9625,6.5618],[79.9597,6.5681],[79.9592,6.5708],[79.9599,6.5719],[79.9581,6.5739],[79.9561,6.5814],[79.9555,6.5847],[79.9533,6.5907],[79.9526,6.594],[79.9504,6.6019],[79.949,6.6045],[79.9485,6.6067],[79.9466,6.612],[79.9414,6.6239],[79.9321,6.6491],[79.9263,6.6627],[79.9182,6.6796],[79.9173,6.6826],[79.9163,6.6837],[79.9078,6.6989],[79.9067,6.7016],[79.904,6.7062],[79.9007,6.7138],[79.9006,6.7143],[79.9011,6.7153],[79.9007,6.7157],[79.9007,6.7167],[79.8995,6.7165],[79.8995,6.717],[79.9004,6.7174],[79.9003,6.7194],[79.8985,6.7234],[79.893,6.7387],[79.8868,6.7545],[79.883,6.7631],[79.883,6.7649],[79.8824,6.7658],[79.882,6.766],[79.8822,6.7671],[79.8811,6.7684],[79.8805,6.77],[79.8803,6.7714],[79.8792,6.7739],[79.8794,6.7741],[79.8787,6.7762],[79.8763,6.7817],[79.8747,6.7876],[79.8748,6.7885],[79.8713,6.7988],[79.8699,6.8044],[79.8687,6.807],[79.8651,6.8193],[79.8628,6.8252],[79.863,6.8266],[79.8625,6.8292],[79.861,6.8338],[79.8613,6.8342],[79.8619,6.8339],[79.8622,6.8345],[79.8624,6.8345],[79.8627,6.8353],[79.8625,6.8358],[79.8629,6.8364],[79.8616,6.8476],[79.862,6.8478],[79.8619,6.8489],[79.8624,6.849],[79.8616,6.8529],[79.8609,6.8533],[79.8595,6.8624],[79.8598,6.8626],[79.8595,6.8626],[79.8572,6.8745],[79.8562,6.8783],[79.8558,6.8788],[79.856,6.8791],[79.8557,6.8813],[79.8535,6.8913],[79.8469,6.9153],[79.8447,6.9229],[79.8439,6.9244],[79.8441,6.9245],[79.8431,6.9279],[79.8429,6.9283],[79.842,6.9286],[79.8417,6.9283],[79.8414,6.9259],[79.841,6.9253],[79.8398,6.9246],[79.8384,6.9246],[79.8361,6.9226],[79.8343,6.9222],[79.8293,6.9223],[79.8261,6.9232],[79.8234,6.9251],[79.8212,6.928],[79.8202,6.9311],[79.82,6.9406],[79.8232,6.9432],[79.8225,6.9457],[79.8226,6.9572],[79.8232,6.9583],[79.8307,6.9658],[79.8311,6.9659],[79.8312,6.9655],[79.8295,6.9642],[79.8298,6.9638],[79.8233,6.9572],[79.8232,6.9466],[79.8238,6.9446],[79.8243,6.9442],[79.8252,6.9441],[79.8254,6.9436],[79.8258,6.9437],[79.8259,6.9454],[79.8275,6.9454],[79.8275,6.9458],[79.8384,6.9458],[79.8384,6.9453],[79.8391,6.9453],[79.8393,6.9465],[79.8389,6.9465],[79.8398,6.9518],[79.8405,6.9517],[79.8402,6.95],[79.8407,6.9499],[79.8401,6.9461],[79.8422,6.9458],[79.8422,6.9472],[79.8435,6.9482],[79.8441,6.9504],[79.8445,6.9547],[79.8399,6.9603],[79.8393,6.9597],[79.8398,6.9588],[79.8389,6.9598],[79.8391,6.9604],[79.8399,6.9608],[79.8446,6.9553],[79.8446,6.9559],[79.8449,6.9558],[79.8446,6.9533],[79.8453,6.9531],[79.8457,6.9534],[79.8458,6.9529],[79.8456,6.9532],[79.8449,6.9521],[79.8462,6.9518],[79.8461,6.9507],[79.8463,6.9506],[79.845,6.9422],[79.8445,6.9407],[79.8444,6.941],[79.8438,6.9409],[79.8437,6.9403],[79.8429,6.94],[79.8431,6.9396],[79.8434,6.9397],[79.8432,6.9395],[79.8434,6.9391],[79.8437,6.9395],[79.8436,6.9392],[79.8443,6.939],[79.8444,6.9395],[79.8444,6.939],[79.8449,6.9388],[79.8451,6.9393],[79.845,6.9388],[79.8453,6.9387],[79.8463,6.9423],[79.8474,6.942],[79.8464,6.9383],[79.8473,6.938],[79.8481,6.9385],[79.848,6.9388],[79.8482,6.9385],[79.8485,6.9387],[79.8482,6.9392],[79.8486,6.9388],[79.8489,6.939],[79.8484,6.9397],[79.849,6.939],[79.8493,6.9391],[79.849,6.9396],[79.8492,6.9392],[79.8495,6.9394],[79.8488,6.9405],[79.8496,6.9394],[79.8494,6.9398],[79.8498,6.9395],[79.8495,6.94],[79.8498,6.9402],[79.8492,6.9411],[79.8499,6.9403],[79.85,6.9404],[79.8497,6.9409],[79.8504,6.9402],[79.8513,6.9408],[79.8511,6.9411],[79.8513,6.9408],[79.8523,6.9417],[79.8517,6.942],[79.8513,6.9418],[79.8499,6.9425],[79.8525,6.9478],[79.8537,6.9534],[79.856,6.9532],[79.8561,6.9536],[79.8546,6.9538],[79.8547,6.9543],[79.8538,6.9546],[79.8562,6.9544],[79.856,6.9547],[79.8562,6.9552],[79.8557,6.9553],[79.8561,6.9555],[79.8555,6.9556],[79.8573,6.9561],[79.8571,6.9563],[79.8575,6.9565],[79.8574,6.9568],[79.8541,6.9566],[79.8565,6.9573],[79.8566,6.9584],[79.8533,6.9577],[79.8532,6.9588],[79.8566,6.9593],[79.8566,6.9597],[79.8559,6.9597],[79.8566,6.9597],[79.8563,6.9602],[79.8566,6.9603],[79.8566,6.9608],[79.8531,6.9605],[79.8533,6.9611],[79.8564,6.9615],[79.8566,6.962],[79.8577,6.9622],[79.8573,6.9637],[79.8579,6.9641],[79.8577,6.9636],[79.8581,6.9625],[79.8589,6.9629],[79.8589,6.9641],[79.8592,6.9649],[79.8591,6.9634],[79.8604,6.9631],[79.8611,6.9635],[79.8617,6.9634],[79.8618,6.9637],[79.8612,6.9644],[79.8621,6.9636],[79.8624,6.9643],[79.8621,6.9647],[79.863,6.965],[79.864,6.9648],[79.8646,6.9653],[79.8656,6.9669],[79.8666,6.9677],[79.8667,6.9684],[79.8675,6.9683],[79.8682,6.9694],[79.8684,6.9698],[79.8682,6.9702],[79.8679,6.9704],[79.8677,6.9702],[79.8679,6.971],[79.8683,6.9708],[79.8687,6.9711],[79.8688,6.9728],[79.8686,6.9731],[79.8681,6.973],[79.8684,6.9741],[79.8685,6.9739],[79.8691,6.974],[79.8693,6.9749],[79.8689,6.9814],[79.8692,6.982],[79.8689,6.9835],[79.8692,6.9849],[79.8688,6.9864],[79.8688,6.9881],[79.8672,6.9951],[79.8674,6.9953],[79.8676,6.995],[79.8679,6.9954],[79.8676,6.9961],[79.868,6.9974],[79.8676,6.999],[79.8679,6.999],[79.868,6.9995],[79.868,7.0002],[79.8676,7.0003],[79.8681,7.0003],[79.8682,7.001],[79.867,7.0038],[79.8667,7.0066],[79.8655,7.0089],[79.8646,7.0121],[79.8642,7.015],[79.8637,7.016],[79.8639,7.0168],[79.8627,7.0195],[79.8627,7.0215],[79.8622,7.0226],[79.8587,7.0392],[79.8521,7.0655],[79.8508,7.0725],[79.8477,7.0851],[79.8465,7.093],[79.846,7.094],[79.8449,7.1004],[79.8434,7.1056],[79.8423,7.1121],[79.8326,7.1383],[79.8312,7.1442],[79.8284,7.1531],[79.8205,7.1831],[79.8169,7.2033],[79.8174,7.2046],[79.8188,7.2058],[79.8196,7.2073],[79.822,7.2081],[79.8258,7.2083],[79.827,7.2048],[79.8288,7.2034],[79.8295,7.2033],[79.8292,7.2025],[79.8298,7.2026],[79.8306,7.2015],[79.83,7.1986],[79.8315,7.1988],[79.8315,7.1995],[79.8337,7.1993],[79.8337,7.1996],[79.8332,7.1995],[79.8325,7.2003],[79.8327,7.2021],[79.8325,7.2024],[79.8323,7.2019],[79.8302,7.2042],[79.8301,7.2056],[79.8304,7.2064],[79.8323,7.2065],[79.8323,7.2069],[79.8349,7.2078],[79.8349,7.2082],[79.833,7.208],[79.8323,7.2088],[79.8324,7.2079],[79.8302,7.2067],[79.8295,7.2068],[79.829,7.2072],[79.8286,7.2061],[79.8289,7.2073],[79.8285,7.2078],[79.8293,7.2092],[79.8286,7.2098],[79.8292,7.2096],[79.8297,7.2099],[79.8316,7.2115],[79.8315,7.2121],[79.8325,7.2117],[79.8335,7.2123],[79.8361,7.2153],[79.8377,7.2185],[79.8376,7.219],[79.838,7.2194],[79.8379,7.22],[79.8392,7.2242],[79.8392,7.2259],[79.8395,7.2259],[79.841,7.2377],[79.8418,7.2508],[79.8417,7.2658],[79.841,7.2729],[79.848,7.2722],[79.8505,7.2723],[79.8522,7.2731],[79.8526,7.2739],[79.8524,7.2748],[79.8518,7.2753],[79.8518,7.2763],[79.8528,7.2769],[79.8541,7.277],[79.8549,7.2769],[79.856,7.2761],[79.8579,7.2717],[79.8595,7.2701],[79.8607,7.27],[79.8664,7.271],[79.8682,7.2727],[79.87,7.2758],[79.8705,7.2803],[79.8723,7.2819],[79.8746,7.2827],[79.877,7.2822],[79.8806,7.2806],[79.8823,7.278],[79.8838,7.2749],[79.8849,7.2739],[79.8908,7.2733],[79.8938,7.2743],[79.8975,7.2748],[79.8982,7.2753],[79.8989,7.2766],[79.8987,7.2809],[79.899,7.2813],[79.8998,7.2814],[79.9005,7.2811],[79.9014,7.2799],[79.9025,7.2754],[79.9035,7.2744],[79.9059,7.2746],[79.9069,7.2754],[79.9071,7.276],[79.9065,7.2795],[79.9067,7.2803],[79.9083,7.2801],[79.9092,7.2792],[79.9094,7.2774],[79.9087,7.2741],[79.9062,7.2712],[79.905,7.269],[79.9051,7.2677],[79.9059,7.266],[79.907,7.2653],[79.9081,7.2652],[79.9104,7.2671],[79.9149,7.2687],[79.9161,7.27],[79.9165,7.2709],[79.9165,7.2719],[79.9144,7.2754],[79.9145,7.2764],[79.9149,7.2769],[79.9157,7.2771],[79.9193,7.2765],[79.9229,7.2783],[79.9236,7.2782],[79.9244,7.2778],[79.925,7.2764],[79.924,7.2728],[79.9244,7.2717],[79.9253,7.2712],[79.926,7.2713],[79.927,7.2717],[79.9282,7.2729],[79.9286,7.2739],[79.9283,7.2748],[79.9247,7.279],[79.9231,7.2823],[79.9232,7.2838],[79.9241,7.2846],[79.9253,7.2844],[79.9281,7.2829],[79.9312,7.2791],[79.9331,7.2782],[79.9354,7.2783],[79.9373,7.2805],[79.9383,7.2808],[79.939,7.2801],[79.9405,7.2771],[79.9414,7.2763],[79.944,7.2746],[79.9459,7.2739],[79.9466,7.2747],[79.9468,7.2757],[79.9466,7.2786],[79.9482,7.2806],[79.9494,7.2811],[79.9538,7.2804],[79.9551,7.2809],[79.956,7.2824],[79.9558,7.2831],[79.953,7.2844],[79.9515,7.2857],[79.9508,7.287],[79.9504,7.2888],[79.9505,7.2895],[79.951,7.2901],[79.9521,7.2904],[79.9564,7.2899],[79.957,7.2904],[79.9571,7.2911],[79.9562,7.2935],[79.9564,7.2938],[79.9573,7.2942],[79.9604,7.2937],[79.9623,7.2925],[79.9644,7.2903],[79.9669,7.2894],[79.9681,7.2894],[79.9692,7.2898],[79.9721,7.2931],[79.9727,7.2933],[79.976,7.2923],[79.9768,7.2924],[79.9781,7.2937],[79.9797,7.2994],[79.981,7.3011],[79.9829,7.3018],[79.9861,7.3014],[79.99,7.3036],[79.991,7.3037],[79.9938,7.3031],[79.9948,7.3043],[79.9943,7.3055],[79.9913,7.3051],[79.9889,7.3052],[79.9882,7.306],[79.9885,7.3073],[79.9905,7.3088],[79.9933,7.3094],[79.9953,7.3102],[79.9979,7.3138],[79.9989,7.3144],[79.9998,7.3148],[80.003,7.3144],[80.0042,7.3148],[80.005,7.3164],[80.0052,7.3195],[80.0062,7.3208],[80.0078,7.3218],[80.0091,7.3214],[80.0092,7.3181],[80.0095,7.3174],[80.0108,7.317],[80.014,7.3172],[80.0153,7.3143],[80.0164,7.3147],[80.0181,7.3164],[80.0205,7.3176],[80.0241,7.3175],[80.0263,7.3179],[80.0273,7.3173],[80.0275,7.3165],[80.0272,7.3158],[80.0249,7.314],[80.0247,7.3122],[80.0253,7.3116],[80.028,7.3104],[80.0293,7.3092],[80.0299,7.3077],[80.0304,7.3035],[80.0311,7.3021],[80.0327,7.3018],[80.0348,7.3031],[80.0379,7.3036],[80.0394,7.3031],[80.0431,7.3003],[80.0471,7.2994],[80.0474,7.2984],[80.047,7.2962],[80.0473,7.2955],[80.0486,7.2942],[80.0524,7.2918],[80.0533,7.2908],[80.0536,7.2896],[80.0532,7.2861],[80.0535,7.2849],[80.0544,7.2842],[80.0568,7.2838],[80.0591,7.2838],[80.0613,7.2848],[80.0633,7.2853],[80.0649,7.2863],[80.0672,7.2883],[80.0734,7.2923],[80.0786,7.296],[80.0806,7.297],[80.0823,7.2983],[80.0825,7.3026],[80.0836,7.3045],[80.0849,7.305],[80.0857,7.3048],[80.0867,7.3038],[80.0876,7.3036],[80.0908,7.3061],[80.0943,7.3072],[80.096,7.3095],[80.0992,7.3121],[80.1014,7.3123],[80.1028,7.3135],[80.1034,7.3147],[80.1039,7.3171],[80.1077,7.3211],[80.1128,7.3238],[80.1182,7.3254],[80.1207,7.327],[80.1237,7.3303],[80.1253,7.3301],[80.1299,7.3285],[80.1333,7.3268],[80.1389,7.3234],[80.1397,7.3225],[80.1401,7.3203],[80.1407,7.3194],[80.143,7.3177],[80.146,7.3146],[80.1481,7.3136],[80.1489,7.3124]],[[80.1606,7.2026],[80.159,7.1998],[80.1591,7.1993],[80.1602,7.1985],[80.1609,7.1983],[80.1641,7.1997],[80.1671,7.2001],[80.167,7.2016],[80.1665,7.2024],[80.1655,7.203],[80.1626,7.2032],[80.1606,7.2026]]]]}}]}